<?xml version="1.0" encoding="UTF-8"?>
<kml xmlns="http://www.opengis.net/kml/2.2">
  <Document>
    <name>خريطة نجران البرية</name>
    <description><![CDATA[نتمنى ترك المتنزهات والبراري نظيفة بعد مغادرتها ليصبح المكان أكثر جمالاً.<br>توضيح الوان النقاط في الخريطة :<br>الاحمر : أسماء مدن - محافظات - قرى - هجر<br>الرمادي : أسماء محلية - أسماء أماكن متعارف عليه<br>البني : جبال - هضاب - حزوم - كهوف<br>الازرق : وديان - شعبان - قيعان - سدود - خباري<br>الاخضر : آبار - عيون - ثمايل - موارد ماء<br>الاصفر : طعوس - عروق - نوازي - خبوب<br>الاسود : طرق صحراوية - ردميات - دروب غير معبدة<br>شعار القلعة : آثار - مواقع تاريخية - برك قديمة - نقوش<br>بيئتنا .. مسؤوليتنا <br>ـــــــــــ<br>إذا كان هناك مكان خاطئ أو موقع ناقص آمل التواصل تويتر ( الخرائط البرية maps_ksa@ ) <br>أو على الإميل wild.maps.sa@gmail.com<br>وسيتم التواصل معك بإذن الله<br>]]></description>
    <Style id="icon-1598-BDBDBD-labelson-nodesc">
      <IconStyle>
        <color>ffbdbdbd</color>
        <scale>1</scale>
        <Icon>
          <href>https://www.gstatic.com/mapspro/images/stock/503-wht-blank_maps.png</href>
        </Icon>
      </IconStyle>
      <BalloonStyle>
        <text><![CDATA[<h3>$[name]</h3>]]></text>
      </BalloonStyle>
    </Style>
    <Style id="icon-1739-000000-labelson-nodesc">
      <IconStyle>
        <color>ff000000</color>
        <scale>1</scale>
        <Icon>
          <href>https://www.gstatic.com/mapspro/images/stock/503-wht-blank_maps.png</href>
        </Icon>
      </IconStyle>
      <BalloonStyle>
        <text><![CDATA[<h3>$[name]</h3>]]></text>
      </BalloonStyle>
    </Style>
    <Style id="icon-1739-0288D1-labelson-nodesc">
      <IconStyle>
        <color>ffd18802</color>
        <scale>1</scale>
        <Icon>
          <href>https://www.gstatic.com/mapspro/images/stock/503-wht-blank_maps.png</href>
        </Icon>
      </IconStyle>
      <BalloonStyle>
        <text><![CDATA[<h3>$[name]</h3>]]></text>
      </BalloonStyle>
    </Style>
    <Style id="icon-1739-0F9D58-labelson-nodesc">
      <IconStyle>
        <color>ff589d0f</color>
        <scale>1</scale>
        <Icon>
          <href>https://www.gstatic.com/mapspro/images/stock/503-wht-blank_maps.png</href>
        </Icon>
      </IconStyle>
      <BalloonStyle>
        <text><![CDATA[<h3>$[name]</h3>]]></text>
      </BalloonStyle>
    </Style>
    <Style id="icon-1739-757575-labelson-nodesc">
      <IconStyle>
        <color>ff757575</color>
        <scale>1</scale>
        <Icon>
          <href>https://www.gstatic.com/mapspro/images/stock/503-wht-blank_maps.png</href>
        </Icon>
      </IconStyle>
      <BalloonStyle>
        <text><![CDATA[<h3>$[name]</h3>]]></text>
      </BalloonStyle>
    </Style>
    <Style id="icon-1739-DB4436-labelson-nodesc">
      <IconStyle>
        <color>ff3644db</color>
        <scale>1</scale>
        <Icon>
          <href>https://www.gstatic.com/mapspro/images/stock/503-wht-blank_maps.png</href>
        </Icon>
      </IconStyle>
      <BalloonStyle>
        <text><![CDATA[<h3>$[name]</h3>]]></text>
      </BalloonStyle>
    </Style>
    <Style id="icon-1739-FBC02D-labelson-nodesc">
      <IconStyle>
        <color>ff2dc0fb</color>
        <scale>1</scale>
        <Icon>
          <href>https://www.gstatic.com/mapspro/images/stock/503-wht-blank_maps.png</href>
        </Icon>
      </IconStyle>
      <BalloonStyle>
        <text><![CDATA[<h3>$[name]</h3>]]></text>
      </BalloonStyle>
    </Style>
    <Style id="line-000000-1775-nodesc-normal">
      <LineStyle>
        <color>ff000000</color>
        <width>1.775</width>
      </LineStyle>
      <BalloonStyle>
        <text><![CDATA[<h3>$[name]</h3>]]></text>
      </BalloonStyle>
    </Style>
    <Style id="line-000000-1775-nodesc-highlight">
      <LineStyle>
        <color>ff000000</color>
        <width>2.6625</width>
      </LineStyle>
      <BalloonStyle>
        <text><![CDATA[<h3>$[name]</h3>]]></text>
      </BalloonStyle>
    </Style>
    <StyleMap id="line-000000-1775-nodesc">
      <Pair>
        <key>normal</key>
        <styleUrl>#line-000000-1775-nodesc-normal</styleUrl>
      </Pair>
      <Pair>
        <key>highlight</key>
        <styleUrl>#line-000000-1775-nodesc-highlight</styleUrl>
      </Pair>
    </StyleMap>
    <Folder>
      <name>مواقع اثرية</name>
      <Placemark>
        <name>قصر اثري</name>
        <styleUrl>#icon-1598-BDBDBD-labelson-nodesc</styleUrl>
        <Point>
          <coordinates>
            44.153967,17.471094,0
          </coordinates>
        </Point>
      </Placemark>
    </Folder>
    <Folder>
      <name>طرق صحراوية</name>
      <Placemark>
        <name>مفرق السليل</name>
        <styleUrl>#icon-1739-000000-labelson-nodesc</styleUrl>
        <Point>
          <coordinates>
            46.387517,17.410133,0
          </coordinates>
        </Point>
      </Placemark>
      <Placemark>
        <name/>
        <styleUrl>#line-000000-1775-nodesc</styleUrl>
        <LineString>
          <tessellate>1</tessellate>
          <coordinates>
            44.423089,19.335444,0
            44.429719,19.348018,0
            44.440362,19.375377,0
            44.445341,19.392028,0
            44.444354,19.409645,0
            44.441349,19.421597,0
          </coordinates>
        </LineString>
      </Placemark>
      <Placemark>
        <name/>
        <styleUrl>#line-000000-1775-nodesc</styleUrl>
        <LineString>
          <tessellate>1</tessellate>
          <coordinates>
            44.441349,19.421597,0
            44.443023,19.427884,0
            44.448001,19.436681,0
          </coordinates>
        </LineString>
      </Placemark>
    </Folder>
    <Folder>
      <name>نفود</name>
      <Placemark>
        <name>شقاف سرداب</name>
        <styleUrl>#icon-1739-FBC02D-labelson-nodesc</styleUrl>
        <Point>
          <coordinates>
            50.359011,18.770742,0
          </coordinates>
        </Point>
      </Placemark>
      <Placemark>
        <name>شقة الاثارات</name>
        <styleUrl>#icon-1739-FBC02D-labelson-nodesc</styleUrl>
        <Point>
          <coordinates>
            49.920244,19.095526,0
          </coordinates>
        </Point>
      </Placemark>
      <Placemark>
        <name>شقة البكرة</name>
        <styleUrl>#icon-1739-FBC02D-labelson-nodesc</styleUrl>
        <Point>
          <coordinates>
            47.123194,17.736311,0
          </coordinates>
        </Point>
      </Placemark>
      <Placemark>
        <name>شقة الحاوي</name>
        <styleUrl>#icon-1739-FBC02D-labelson-nodesc</styleUrl>
        <Point>
          <coordinates>
            45.724754,17.386894,0
          </coordinates>
        </Point>
      </Placemark>
      <Placemark>
        <name>شقة الردم</name>
        <styleUrl>#icon-1739-FBC02D-labelson-nodesc</styleUrl>
        <Point>
          <coordinates>
            46.27141,18.150358,0
          </coordinates>
        </Point>
      </Placemark>
      <Placemark>
        <name>شقة القار</name>
        <styleUrl>#icon-1739-FBC02D-labelson-nodesc</styleUrl>
        <Point>
          <coordinates>
            47.626505,17.849951,0
          </coordinates>
        </Point>
      </Placemark>
      <Placemark>
        <name>شقة القعود</name>
        <styleUrl>#icon-1739-FBC02D-labelson-nodesc</styleUrl>
        <Point>
          <coordinates>
            47.916956,17.925482,0
          </coordinates>
        </Point>
      </Placemark>
      <Placemark>
        <name>شقة الكنوب</name>
        <styleUrl>#icon-1739-FBC02D-labelson-nodesc</styleUrl>
        <Point>
          <coordinates>
            46.870852,17.475386,0
          </coordinates>
        </Point>
      </Placemark>
      <Placemark>
        <name>شقة ام الكناور</name>
        <styleUrl>#icon-1739-FBC02D-labelson-nodesc</styleUrl>
        <Point>
          <coordinates>
            46.608553,17.716398,0
          </coordinates>
        </Point>
      </Placemark>
      <Placemark>
        <name>شقق الحلم</name>
        <styleUrl>#icon-1739-FBC02D-labelson-nodesc</styleUrl>
        <Point>
          <coordinates>
            46.786737,17.678976,0
          </coordinates>
        </Point>
      </Placemark>
      <Placemark>
        <name>شقق الخريطة</name>
        <styleUrl>#icon-1739-FBC02D-labelson-nodesc</styleUrl>
        <Point>
          <coordinates>
            46.244631,17.472982,0
          </coordinates>
        </Point>
      </Placemark>
      <Placemark>
        <name>شقق المناهيل</name>
        <styleUrl>#icon-1739-FBC02D-labelson-nodesc</styleUrl>
        <Point>
          <coordinates>
            46.518602,17.519674,0
          </coordinates>
        </Point>
      </Placemark>
      <Placemark>
        <name>شقق امهات جودان</name>
        <styleUrl>#icon-1739-FBC02D-labelson-nodesc</styleUrl>
        <Point>
          <coordinates>
            46.92338,17.31883,0
          </coordinates>
        </Point>
      </Placemark>
      <Placemark>
        <name>شقق بن دلهام</name>
        <styleUrl>#icon-1739-FBC02D-labelson-nodesc</styleUrl>
        <Point>
          <coordinates>
            46.843729,17.940931,0
          </coordinates>
        </Point>
      </Placemark>
      <Placemark>
        <name>شقق بهجه</name>
        <styleUrl>#icon-1739-FBC02D-labelson-nodesc</styleUrl>
        <Point>
          <coordinates>
            46.705456,17.380543,0
          </coordinates>
        </Point>
      </Placemark>
      <Placemark>
        <name>عرق ال قنيبر</name>
        <styleUrl>#icon-1739-FBC02D-labelson-nodesc</styleUrl>
        <Point>
          <coordinates>
            47.042513,18.173017,0
          </coordinates>
        </Point>
      </Placemark>
      <Placemark>
        <name>حقنة ابن غشام</name>
        <styleUrl>#icon-1739-FBC02D-labelson-nodesc</styleUrl>
        <Point>
          <coordinates>
            50.382013,19.180326,0
          </coordinates>
        </Point>
      </Placemark>
      <Placemark>
        <name>عرق الرمرام</name>
        <styleUrl>#icon-1739-FBC02D-labelson-nodesc</styleUrl>
        <Point>
          <coordinates>
            44.94215,17.741632,0
          </coordinates>
        </Point>
      </Placemark>
      <Placemark>
        <name>عرق الزيزا</name>
        <styleUrl>#icon-1739-FBC02D-labelson-nodesc</styleUrl>
        <Point>
          <coordinates>
            47.246919,17.08256,0
          </coordinates>
        </Point>
      </Placemark>
      <Placemark>
        <name>عرق السيول</name>
        <styleUrl>#icon-1739-FBC02D-labelson-nodesc</styleUrl>
        <Point>
          <coordinates>
            45.327187,17.490234,0
          </coordinates>
        </Point>
      </Placemark>
      <Placemark>
        <name>عرق الفلس</name>
        <styleUrl>#icon-1739-FBC02D-labelson-nodesc</styleUrl>
        <Point>
          <coordinates>
            46.978998,17.202444,0
          </coordinates>
        </Point>
      </Placemark>
      <Placemark>
        <name>عرق الكتيب</name>
        <styleUrl>#icon-1739-FBC02D-labelson-nodesc</styleUrl>
        <Point>
          <coordinates>
            46.923895,17.121935,0
          </coordinates>
        </Point>
      </Placemark>
      <Placemark>
        <name>عرق سنان</name>
        <styleUrl>#icon-1739-FBC02D-labelson-nodesc</styleUrl>
        <Point>
          <coordinates>
            44.802504,17.78841,0
          </coordinates>
        </Point>
      </Placemark>
      <Placemark>
        <name>عرق غضي</name>
        <styleUrl>#icon-1739-FBC02D-labelson-nodesc</styleUrl>
        <Point>
          <coordinates>
            45.715141,19.419022,0
          </coordinates>
        </Point>
      </Placemark>
      <Placemark>
        <name>عرق مخيط</name>
        <styleUrl>#icon-1739-FBC02D-labelson-nodesc</styleUrl>
        <Point>
          <coordinates>
            45.539961,19.210625,0
          </coordinates>
        </Point>
      </Placemark>
      <Placemark>
        <name>عرق مشنية</name>
        <styleUrl>#icon-1739-FBC02D-labelson-nodesc</styleUrl>
        <Point>
          <coordinates>
            46.845446,17.223387,0
          </coordinates>
        </Point>
      </Placemark>
      <Placemark>
        <name>عرق منيفة</name>
        <styleUrl>#icon-1739-FBC02D-labelson-nodesc</styleUrl>
        <Point>
          <coordinates>
            45.903711,18.247862,0
          </coordinates>
        </Point>
      </Placemark>
      <Placemark>
        <name>عرق نايف</name>
        <styleUrl>#icon-1739-FBC02D-labelson-nodesc</styleUrl>
        <Point>
          <coordinates>
            50.320559,18.924894,0
          </coordinates>
        </Point>
      </Placemark>
      <Placemark>
        <name>عرق هويمل</name>
        <styleUrl>#icon-1739-FBC02D-labelson-nodesc</styleUrl>
        <Point>
          <coordinates>
            45.948,17.384062,0
          </coordinates>
        </Point>
      </Placemark>
      <Placemark>
        <name>عرق ود</name>
        <styleUrl>#icon-1739-FBC02D-labelson-nodesc</styleUrl>
        <Point>
          <coordinates>
            45.868692,19.254484,0
          </coordinates>
        </Point>
      </Placemark>
      <Placemark>
        <name>عروق</name>
        <styleUrl>#icon-1739-FBC02D-labelson-nodesc</styleUrl>
        <Point>
          <coordinates>
            45.257492,17.579241,0
          </coordinates>
        </Point>
      </Placemark>
      <Placemark>
        <name>عروق</name>
        <styleUrl>#icon-1739-FBC02D-labelson-nodesc</styleUrl>
        <Point>
          <coordinates>
            46.020527,17.386293,0
          </coordinates>
        </Point>
      </Placemark>
      <Placemark>
        <name>عروق البكره</name>
        <styleUrl>#icon-1739-FBC02D-labelson-nodesc</styleUrl>
        <Point>
          <coordinates>
            46.993332,17.568941,0
          </coordinates>
        </Point>
      </Placemark>
      <Placemark>
        <name>عروق الحقاب</name>
        <styleUrl>#icon-1739-FBC02D-labelson-nodesc</styleUrl>
        <Point>
          <coordinates>
            45.392504,17.399254,0
          </coordinates>
        </Point>
      </Placemark>
      <Placemark>
        <name>عروق الصفيات</name>
        <styleUrl>#icon-1739-FBC02D-labelson-nodesc</styleUrl>
        <Point>
          <coordinates>
            45.194707,18.039444,0
          </coordinates>
        </Point>
      </Placemark>
      <Placemark>
        <name>عروق الطويلة</name>
        <styleUrl>#icon-1739-FBC02D-labelson-nodesc</styleUrl>
        <Point>
          <coordinates>
            46.284542,17.378311,0
          </coordinates>
        </Point>
      </Placemark>
      <Placemark>
        <name>عروق العناب</name>
        <styleUrl>#icon-1739-FBC02D-labelson-nodesc</styleUrl>
        <Point>
          <coordinates>
            45.19063,17.443542,0
          </coordinates>
        </Point>
      </Placemark>
      <Placemark>
        <name>عروق الغنم</name>
        <styleUrl>#icon-1739-FBC02D-labelson-nodesc</styleUrl>
        <Point>
          <coordinates>
            46.255617,18.977079,0
          </coordinates>
        </Point>
      </Placemark>
      <Placemark>
        <name>عروق القحميات</name>
        <styleUrl>#icon-1739-FBC02D-labelson-nodesc</styleUrl>
        <Point>
          <coordinates>
            46.530447,17.35548,0
          </coordinates>
        </Point>
      </Placemark>
      <Placemark>
        <name>عروق المندفن</name>
        <styleUrl>#icon-1739-FBC02D-labelson-nodesc</styleUrl>
        <Point>
          <coordinates>
            45.476275,18.437998,0
          </coordinates>
        </Point>
      </Placemark>
      <Placemark>
        <name>عروق المنطحات</name>
        <styleUrl>#icon-1739-FBC02D-labelson-nodesc</styleUrl>
        <Point>
          <coordinates>
            45.776081,17.390842,0
          </coordinates>
        </Point>
      </Placemark>
      <Placemark>
        <name>عروق مصفح</name>
        <styleUrl>#icon-1739-FBC02D-labelson-nodesc</styleUrl>
        <Point>
          <coordinates>
            45.849552,17.386122,0
          </coordinates>
        </Point>
      </Placemark>
    </Folder>
    <Folder>
      <name>موارد مياه</name>
      <Placemark>
        <name>مورد ماء</name>
        <styleUrl>#icon-1739-0F9D58-labelson-nodesc</styleUrl>
        <Point>
          <coordinates>
            47.093239,17.091122,0
          </coordinates>
        </Point>
      </Placemark>
      <Placemark>
        <name>بئر ابن سويلم</name>
        <styleUrl>#icon-1739-0F9D58-labelson-nodesc</styleUrl>
        <Point>
          <coordinates>
            50.649548,18.97459,0
          </coordinates>
        </Point>
      </Placemark>
      <Placemark>
        <name>بئر ابو مسيجد</name>
        <styleUrl>#icon-1739-0F9D58-labelson-nodesc</styleUrl>
        <Point>
          <coordinates>
            50.937595,18.939915,0
          </coordinates>
        </Point>
      </Placemark>
      <Placemark>
        <name>بئر البتراء</name>
        <styleUrl>#icon-1739-0F9D58-labelson-nodesc</styleUrl>
        <Point>
          <coordinates>
            46.916943,17.606299,0
          </coordinates>
        </Point>
      </Placemark>
      <Placemark>
        <name>بئر اوبار</name>
        <styleUrl>#icon-1739-0F9D58-labelson-nodesc</styleUrl>
        <Point>
          <coordinates>
            50.774345,18.852367,0
          </coordinates>
        </Point>
      </Placemark>
      <Placemark>
        <name>بئر خضفيعة</name>
        <styleUrl>#icon-1739-0F9D58-labelson-nodesc</styleUrl>
        <Point>
          <coordinates>
            50.753746,19.011326,0
          </coordinates>
        </Point>
      </Placemark>
      <Placemark>
        <name>بئر سالم</name>
        <styleUrl>#icon-1739-0F9D58-labelson-nodesc</styleUrl>
        <Point>
          <coordinates>
            50.695724,18.950901,0
          </coordinates>
        </Point>
      </Placemark>
      <Placemark>
        <name>بئر طريوة</name>
        <styleUrl>#icon-1739-0F9D58-labelson-nodesc</styleUrl>
        <Point>
          <coordinates>
            50.606632,18.974075,0
          </coordinates>
        </Point>
      </Placemark>
      <Placemark>
        <name>بئر عرفجة</name>
        <styleUrl>#icon-1739-0F9D58-labelson-nodesc</styleUrl>
        <Point>
          <coordinates>
            50.656242,18.982658,0
          </coordinates>
        </Point>
      </Placemark>
      <Placemark>
        <name>بئر فرجة</name>
        <styleUrl>#icon-1739-0F9D58-labelson-nodesc</styleUrl>
        <Point>
          <coordinates>
            50.668774,18.997421,0
          </coordinates>
        </Point>
      </Placemark>
      <Placemark>
        <name>بئر ورسة</name>
        <styleUrl>#icon-1739-0F9D58-labelson-nodesc</styleUrl>
        <Point>
          <coordinates>
            50.588436,18.958282,0
          </coordinates>
        </Point>
      </Placemark>
      <Placemark>
        <name>بئر ورم</name>
        <styleUrl>#icon-1739-0F9D58-labelson-nodesc</styleUrl>
        <Point>
          <coordinates>
            50.896397,18.944378,0
          </coordinates>
        </Point>
      </Placemark>
    </Folder>
    <Folder>
      <name>تجمع مياه</name>
      <Placemark>
        <name>وادي الاثايبه</name>
        <styleUrl>#icon-1739-0288D1-labelson-nodesc</styleUrl>
        <Point>
          <coordinates>
            44.25647,17.568791,0
          </coordinates>
        </Point>
      </Placemark>
      <Placemark>
        <name>وادي الجماة</name>
        <styleUrl>#icon-1739-0288D1-labelson-nodesc</styleUrl>
        <Point>
          <coordinates>
            44.761562,18.711219,0
          </coordinates>
        </Point>
      </Placemark>
      <Placemark>
        <name>وادي الحاير</name>
        <styleUrl>#icon-1739-0288D1-labelson-nodesc</styleUrl>
        <Point>
          <coordinates>
            44.329469,18.672938,0
          </coordinates>
        </Point>
      </Placemark>
      <Placemark>
        <name>وادي الحج</name>
        <styleUrl>#icon-1739-0288D1-labelson-nodesc</styleUrl>
        <Point>
          <coordinates>
            44.194887,17.566237,0
          </coordinates>
        </Point>
      </Placemark>
      <Placemark>
        <name>وادي الدلهوس</name>
        <styleUrl>#icon-1739-0288D1-labelson-nodesc</styleUrl>
        <Point>
          <coordinates>
            43.771505,17.660201,0
          </coordinates>
        </Point>
      </Placemark>
      <Placemark>
        <name>وادي الدلهوس</name>
        <styleUrl>#icon-1739-0288D1-labelson-nodesc</styleUrl>
        <Point>
          <coordinates>
            43.771505,17.660201,0
          </coordinates>
        </Point>
      </Placemark>
      <Placemark>
        <name>وادي الرغام</name>
        <styleUrl>#icon-1739-0288D1-labelson-nodesc</styleUrl>
        <Point>
          <coordinates>
            44.195273,17.626212,0
          </coordinates>
        </Point>
      </Placemark>
      <Placemark>
        <name>وادي السليل</name>
        <styleUrl>#icon-1739-0288D1-labelson-nodesc</styleUrl>
        <Point>
          <coordinates>
            44.252114,18.504281,0
          </coordinates>
        </Point>
      </Placemark>
      <Placemark>
        <name>وادي السليل</name>
        <styleUrl>#icon-1739-0288D1-labelson-nodesc</styleUrl>
        <Point>
          <coordinates>
            44.361227,18.569019,0
          </coordinates>
        </Point>
      </Placemark>
      <Placemark>
        <name>وادي الصلصل</name>
        <styleUrl>#icon-1739-0288D1-labelson-nodesc</styleUrl>
        <Point>
          <coordinates>
            43.75773,17.649043,0
          </coordinates>
        </Point>
      </Placemark>
      <Placemark>
        <name>وادي الصماء</name>
        <styleUrl>#icon-1739-0288D1-labelson-nodesc</styleUrl>
        <Point>
          <coordinates>
            44.457722,18.343906,0
          </coordinates>
        </Point>
      </Placemark>
      <Placemark>
        <name>وادي اللجام</name>
        <styleUrl>#icon-1739-0288D1-labelson-nodesc</styleUrl>
        <Point>
          <coordinates>
            44.291103,18.648112,0
          </coordinates>
        </Point>
      </Placemark>
      <Placemark>
        <name>وادي تريمه</name>
        <styleUrl>#icon-1739-0288D1-labelson-nodesc</styleUrl>
        <Point>
          <coordinates>
            44.126458,17.872975,0
          </coordinates>
        </Point>
      </Placemark>
      <Placemark>
        <name>وادي حبونا</name>
        <styleUrl>#icon-1739-0288D1-labelson-nodesc</styleUrl>
        <Point>
          <coordinates>
            44.551921,17.794311,0
          </coordinates>
        </Point>
      </Placemark>
      <Placemark>
        <name>وادي حصن</name>
        <styleUrl>#icon-1739-0288D1-labelson-nodesc</styleUrl>
        <Point>
          <coordinates>
            43.984623,17.414038,0
          </coordinates>
        </Point>
      </Placemark>
      <Placemark>
        <name>وادي حلاف</name>
        <styleUrl>#icon-1739-0288D1-labelson-nodesc</styleUrl>
        <Point>
          <coordinates>
            44.340649,18.222156,0
          </coordinates>
        </Point>
      </Placemark>
      <Placemark>
        <name>وادي حلال</name>
        <styleUrl>#icon-1739-0288D1-labelson-nodesc</styleUrl>
        <Point>
          <coordinates>
            43.770003,17.61205,0
          </coordinates>
        </Point>
      </Placemark>
      <Placemark>
        <name>وادي حيرور</name>
        <styleUrl>#icon-1739-0288D1-labelson-nodesc</styleUrl>
        <Point>
          <coordinates>
            44.296596,17.600076,0
          </coordinates>
        </Point>
      </Placemark>
      <Placemark>
        <name>وادي ذي حباب</name>
        <styleUrl>#icon-1739-0288D1-labelson-nodesc</styleUrl>
        <Point>
          <coordinates>
            44.1365,17.610526,0
          </coordinates>
        </Point>
      </Placemark>
      <Placemark>
        <name>وادي صلة</name>
        <styleUrl>#icon-1739-0288D1-labelson-nodesc</styleUrl>
        <Point>
          <coordinates>
            44.489758,17.428071,0
          </coordinates>
        </Point>
      </Placemark>
      <Placemark>
        <name>وادي عرفان</name>
        <styleUrl>#icon-1739-0288D1-labelson-nodesc</styleUrl>
        <Point>
          <coordinates>
            44.177313,17.776823,0
          </coordinates>
        </Point>
      </Placemark>
      <Placemark>
        <name>وادي عشر</name>
        <styleUrl>#icon-1739-0288D1-labelson-nodesc</styleUrl>
        <Point>
          <coordinates>
            44.307561,17.607479,0
          </coordinates>
        </Point>
      </Placemark>
      <Placemark>
        <name>وادي عليب</name>
        <styleUrl>#icon-1739-0288D1-labelson-nodesc</styleUrl>
        <Point>
          <coordinates>
            43.766291,17.659042,0
          </coordinates>
        </Point>
      </Placemark>
      <Placemark>
        <name>وادي قطن</name>
        <styleUrl>#icon-1739-0288D1-labelson-nodesc</styleUrl>
        <Point>
          <coordinates>
            44.616444,17.820446,0
          </coordinates>
        </Point>
      </Placemark>
      <Placemark>
        <name>وادي كهلان</name>
        <styleUrl>#icon-1739-0288D1-labelson-nodesc</styleUrl>
        <Point>
          <coordinates>
            43.756743,17.722106,0
          </coordinates>
        </Point>
      </Placemark>
      <Placemark>
        <name>وادي كهلان</name>
        <styleUrl>#icon-1739-0288D1-labelson-nodesc</styleUrl>
        <Point>
          <coordinates>
            44.231193,17.850766,0
          </coordinates>
        </Point>
      </Placemark>
      <Placemark>
        <name>وادي لبو</name>
        <styleUrl>#icon-1739-0288D1-labelson-nodesc</styleUrl>
        <Point>
          <coordinates>
            44.397726,18.220267,0
          </coordinates>
        </Point>
      </Placemark>
      <Placemark>
        <name>وادي مكه</name>
        <styleUrl>#icon-1739-0288D1-labelson-nodesc</styleUrl>
        <Point>
          <coordinates>
            43.711424,17.731955,0
          </coordinates>
        </Point>
      </Placemark>
      <Placemark>
        <name>وادي نجران</name>
        <styleUrl>#icon-1739-0288D1-labelson-nodesc</styleUrl>
        <Point>
          <coordinates>
            44.381032,17.536132,0
          </coordinates>
        </Point>
      </Placemark>
      <Placemark>
        <name>وادي نعوان</name>
        <styleUrl>#icon-1739-0288D1-labelson-nodesc</styleUrl>
        <Point>
          <coordinates>
            44.332366,18.216512,0
          </coordinates>
        </Point>
      </Placemark>
      <Placemark>
        <name>شعب استن</name>
        <styleUrl>#icon-1739-0288D1-labelson-nodesc</styleUrl>
        <Point>
          <coordinates>
            44.01372,17.811348,0
          </coordinates>
        </Point>
      </Placemark>
      <Placemark>
        <name>شعب ال هادي</name>
        <styleUrl>#icon-1739-0288D1-labelson-nodesc</styleUrl>
        <Point>
          <coordinates>
            43.963895,17.774377,0
          </coordinates>
        </Point>
      </Placemark>
      <Placemark>
        <name>شعب المحوي</name>
        <styleUrl>#icon-1739-0288D1-labelson-nodesc</styleUrl>
        <Point>
          <coordinates>
            43.931494,17.687666,0
          </coordinates>
        </Point>
      </Placemark>
      <Placemark>
        <name>شعب بران</name>
        <styleUrl>#icon-1739-0288D1-labelson-nodesc</styleUrl>
        <Point>
          <coordinates>
            44.083178,17.485321,0
          </coordinates>
        </Point>
      </Placemark>
      <Placemark>
        <name>شعب بني هميم</name>
        <styleUrl>#icon-1739-0288D1-labelson-nodesc</styleUrl>
        <Point>
          <coordinates>
            44.196153,17.84405,0
          </coordinates>
        </Point>
      </Placemark>
      <Placemark>
        <name>شعب عشر</name>
        <styleUrl>#icon-1739-0288D1-labelson-nodesc</styleUrl>
        <Point>
          <coordinates>
            43.765969,17.59572,0
          </coordinates>
        </Point>
      </Placemark>
      <Placemark>
        <name>شعيب القمراء</name>
        <styleUrl>#icon-1739-0288D1-labelson-nodesc</styleUrl>
        <Point>
          <coordinates>
            44.08777,17.498689,0
          </coordinates>
        </Point>
      </Placemark>
      <Placemark>
        <name>شعيب ظلم</name>
        <styleUrl>#icon-1739-0288D1-labelson-nodesc</styleUrl>
        <Point>
          <coordinates>
            44.347901,17.470858,0
          </coordinates>
        </Point>
      </Placemark>
      <Placemark>
        <name>سد ابو رشاش</name>
        <styleUrl>#icon-1739-0288D1-labelson-nodesc</styleUrl>
        <Point>
          <coordinates>
            44.205873,17.626362,0
          </coordinates>
        </Point>
      </Placemark>
      <Placemark>
        <name>سد ال عمره</name>
        <styleUrl>#icon-1739-0288D1-labelson-nodesc</styleUrl>
        <Point>
          <coordinates>
            43.711038,17.811756,0
          </coordinates>
        </Point>
      </Placemark>
      <Placemark>
        <name>سد هداده</name>
        <styleUrl>#icon-1739-0288D1-labelson-nodesc</styleUrl>
        <Point>
          <coordinates>
            43.73138,17.595184,0
          </coordinates>
        </Point>
      </Placemark>
      <Placemark>
        <name>سد وادي نعوان</name>
        <styleUrl>#icon-1739-0288D1-labelson-nodesc</styleUrl>
        <Point>
          <coordinates>
            44.327495,18.22222,0
          </coordinates>
        </Point>
      </Placemark>
      <Placemark>
        <name>سد وادي نجران</name>
        <styleUrl>#icon-1739-0288D1-labelson-nodesc</styleUrl>
        <Point>
          <coordinates>
            44.013952,17.407749,0
          </coordinates>
        </Point>
      </Placemark>
      <Placemark>
        <name>وادي ظلمة</name>
        <styleUrl>#icon-1739-0288D1-labelson-nodesc</styleUrl>
        <Point>
          <coordinates>
            43.7634578,17.4799563,0
          </coordinates>
        </Point>
      </Placemark>
    </Folder>
    <Folder>
      <name>جبال</name>
      <Placemark>
        <name>جبال السوادة</name>
        <styleUrl>#icon-1739-DB4436-labelson-nodesc</styleUrl>
        <Point>
          <coordinates>
            44.441371,19.27386,0
          </coordinates>
        </Point>
      </Placemark>
      <Placemark>
        <name>جبال الوجد</name>
        <styleUrl>#icon-1739-DB4436-labelson-nodesc</styleUrl>
        <Point>
          <coordinates>
            44.456992,19.13166,0
          </coordinates>
        </Point>
      </Placemark>
      <Placemark>
        <name>جبل ابو خطين</name>
        <styleUrl>#icon-1739-DB4436-labelson-nodesc</styleUrl>
        <Point>
          <coordinates>
            44.288313,17.83139,0
          </coordinates>
        </Point>
      </Placemark>
      <Placemark>
        <name>جبل الاحمر</name>
        <styleUrl>#icon-1739-DB4436-labelson-nodesc</styleUrl>
        <Point>
          <coordinates>
            44.152701,17.444057,0
          </coordinates>
        </Point>
      </Placemark>
      <Placemark>
        <name>جبل التامتين</name>
        <styleUrl>#icon-1739-DB4436-labelson-nodesc</styleUrl>
        <Point>
          <coordinates>
            44.374294,17.43365,0
          </coordinates>
        </Point>
      </Placemark>
      <Placemark>
        <name>جبل الحشرج</name>
        <styleUrl>#icon-1739-DB4436-labelson-nodesc</styleUrl>
        <Point>
          <coordinates>
            44.264882,17.49517,0
          </coordinates>
        </Point>
      </Placemark>
      <Placemark>
        <name>جبل الخارش</name>
        <styleUrl>#icon-1739-DB4436-labelson-nodesc</styleUrl>
        <Point>
          <coordinates>
            44.10779,17.59984,0
          </coordinates>
        </Point>
      </Placemark>
      <Placemark>
        <name>جبل الخزان</name>
        <styleUrl>#icon-1739-DB4436-labelson-nodesc</styleUrl>
        <Point>
          <coordinates>
            44.143324,17.503281,0
          </coordinates>
        </Point>
      </Placemark>
      <Placemark>
        <name>جبل الخضراء</name>
        <styleUrl>#icon-1739-DB4436-labelson-nodesc</styleUrl>
        <Point>
          <coordinates>
            44.419849,17.533472,0
          </coordinates>
        </Point>
      </Placemark>
      <Placemark>
        <name>جبل الخنجر</name>
        <styleUrl>#icon-1739-DB4436-labelson-nodesc</styleUrl>
        <Point>
          <coordinates>
            43.663359,17.504911,0
          </coordinates>
        </Point>
      </Placemark>
      <Placemark>
        <name>جبل الراس</name>
        <styleUrl>#icon-1739-DB4436-labelson-nodesc</styleUrl>
        <Point>
          <coordinates>
            44.150362,17.622414,0
          </coordinates>
        </Point>
      </Placemark>
      <Placemark>
        <name>جبل الرداة</name>
        <styleUrl>#icon-1739-DB4436-labelson-nodesc</styleUrl>
        <Point>
          <coordinates>
            44.417939,17.459593,0
          </coordinates>
        </Point>
      </Placemark>
      <Placemark>
        <name>جبل الرقاق</name>
        <styleUrl>#icon-1739-DB4436-labelson-nodesc</styleUrl>
        <Point>
          <coordinates>
            44.269731,17.580442,0
          </coordinates>
        </Point>
      </Placemark>
      <Placemark>
        <name>جبل الزرقاء</name>
        <styleUrl>#icon-1739-DB4436-labelson-nodesc</styleUrl>
        <Point>
          <coordinates>
            44.70279,18.723342,0
          </coordinates>
        </Point>
      </Placemark>
      <Placemark>
        <name>جبل الزغيرع</name>
        <styleUrl>#icon-1739-DB4436-labelson-nodesc</styleUrl>
        <Point>
          <coordinates>
            47.259064,17.644043,0
          </coordinates>
        </Point>
      </Placemark>
      <Placemark>
        <name>جبل الزقم</name>
        <styleUrl>#icon-1739-DB4436-labelson-nodesc</styleUrl>
        <Point>
          <coordinates>
            43.900251,17.551603,0
          </coordinates>
        </Point>
      </Placemark>
      <Placemark>
        <name>جبل السواده</name>
        <styleUrl>#icon-1739-DB4436-labelson-nodesc</styleUrl>
        <Point>
          <coordinates>
            44.404764,17.94857,0
          </coordinates>
        </Point>
      </Placemark>
      <Placemark>
        <name>جبل السودة</name>
        <styleUrl>#icon-1739-DB4436-labelson-nodesc</styleUrl>
        <Point>
          <coordinates>
            44.366355,17.615247,0
          </coordinates>
        </Point>
      </Placemark>
      <Placemark>
        <name>جبل العشاء</name>
        <styleUrl>#icon-1739-DB4436-labelson-nodesc</styleUrl>
        <Point>
          <coordinates>
            44.188471,17.465601,0
          </coordinates>
        </Point>
      </Placemark>
      <Placemark>
        <name>جبل القفل</name>
        <styleUrl>#icon-1739-DB4436-labelson-nodesc</styleUrl>
        <Point>
          <coordinates>
            44.807911,17.469292,0
          </coordinates>
        </Point>
      </Placemark>
      <Placemark>
        <name>جبل اللصة</name>
        <styleUrl>#icon-1739-DB4436-labelson-nodesc</styleUrl>
        <Point>
          <coordinates>
            44.382427,19.128742,0
          </coordinates>
        </Point>
      </Placemark>
      <Placemark>
        <name>جبل المرحى</name>
        <styleUrl>#icon-1739-DB4436-labelson-nodesc</styleUrl>
        <Point>
          <coordinates>
            44.208598,17.432449,0
          </coordinates>
        </Point>
      </Placemark>
      <Placemark>
        <name>جبل المضباع</name>
        <styleUrl>#icon-1739-DB4436-labelson-nodesc</styleUrl>
        <Point>
          <coordinates>
            44.268315,17.593532,0
          </coordinates>
        </Point>
      </Placemark>
      <Placemark>
        <name>جبل المنبطح</name>
        <styleUrl>#icon-1739-DB4436-labelson-nodesc</styleUrl>
        <Point>
          <coordinates>
            45.858736,17.767553,0
          </coordinates>
        </Point>
      </Placemark>
      <Placemark>
        <name>جبل الميعان</name>
        <styleUrl>#icon-1739-DB4436-labelson-nodesc</styleUrl>
        <Point>
          <coordinates>
            44.285352,17.498131,0
          </coordinates>
        </Point>
      </Placemark>
      <Placemark>
        <name>جبل النبطاء</name>
        <styleUrl>#icon-1739-DB4436-labelson-nodesc</styleUrl>
        <Point>
          <coordinates>
            44.614019,19.201419,0
          </coordinates>
        </Point>
      </Placemark>
      <Placemark>
        <name>جبل النثاق</name>
        <styleUrl>#icon-1739-DB4436-labelson-nodesc</styleUrl>
        <Point>
          <coordinates>
            44.592133,17.859821,0
          </coordinates>
        </Point>
      </Placemark>
      <Placemark>
        <name>جبل الهيله - العريق</name>
        <styleUrl>#icon-1739-DB4436-labelson-nodesc</styleUrl>
        <Point>
          <coordinates>
            44.006939,18.185828,0
          </coordinates>
        </Point>
      </Placemark>
      <Placemark>
        <name>جبل الوطي</name>
        <styleUrl>#icon-1739-DB4436-labelson-nodesc</styleUrl>
        <Point>
          <coordinates>
            44.347064,17.484291,0
          </coordinates>
        </Point>
      </Placemark>
      <Placemark>
        <name>جبل ام شرابيب</name>
        <styleUrl>#icon-1739-DB4436-labelson-nodesc</styleUrl>
        <Point>
          <coordinates>
            44.227781,17.59954,0
          </coordinates>
        </Point>
      </Placemark>
      <Placemark>
        <name>جبل ام للحي</name>
        <styleUrl>#icon-1739-DB4436-labelson-nodesc</styleUrl>
        <Point>
          <coordinates>
            44.338374,17.61014,0
          </coordinates>
        </Point>
      </Placemark>
      <Placemark>
        <name>جبل بريمة</name>
        <styleUrl>#icon-1739-DB4436-labelson-nodesc</styleUrl>
        <Point>
          <coordinates>
            44.261942,17.44704,0
          </coordinates>
        </Point>
      </Placemark>
      <Placemark>
        <name>جبل تصلال</name>
        <styleUrl>#icon-1739-DB4436-labelson-nodesc</styleUrl>
        <Point>
          <coordinates>
            44.493105,17.614861,0
          </coordinates>
        </Point>
      </Placemark>
      <Placemark>
        <name>جبل تكتمه</name>
        <styleUrl>#icon-1739-DB4436-labelson-nodesc</styleUrl>
        <Point>
          <coordinates>
            44.224648,17.457662,0
          </coordinates>
        </Point>
      </Placemark>
      <Placemark>
        <name>جبل خشب</name>
        <styleUrl>#icon-1739-DB4436-labelson-nodesc</styleUrl>
        <Point>
          <coordinates>
            44.683843,19.109323,0
          </coordinates>
        </Point>
      </Placemark>
      <Placemark>
        <name>جبل زلوم</name>
        <styleUrl>#icon-1739-DB4436-labelson-nodesc</styleUrl>
        <Point>
          <coordinates>
            44.254367,17.513452,0
          </coordinates>
        </Point>
      </Placemark>
      <Placemark>
        <name>جبل ساره</name>
        <styleUrl>#icon-1739-DB4436-labelson-nodesc</styleUrl>
        <Point>
          <coordinates>
            44.131672,18.784454,0
          </coordinates>
        </Point>
      </Placemark>
      <Placemark>
        <name>جبل سوداء</name>
        <styleUrl>#icon-1739-DB4436-labelson-nodesc</styleUrl>
        <Point>
          <coordinates>
            44.175339,17.450366,0
          </coordinates>
        </Point>
      </Placemark>
      <Placemark>
        <name>جبل صحيفات</name>
        <styleUrl>#icon-1739-DB4436-labelson-nodesc</styleUrl>
        <Point>
          <coordinates>
            44.381247,17.526669,0
          </coordinates>
        </Point>
      </Placemark>
      <Placemark>
        <name>جبل ضبع</name>
        <styleUrl>#icon-1739-DB4436-labelson-nodesc</styleUrl>
        <Point>
          <coordinates>
            44.5263,17.735024,0
          </coordinates>
        </Point>
      </Placemark>
      <Placemark>
        <name>جبل ضحي</name>
        <styleUrl>#icon-1739-DB4436-labelson-nodesc</styleUrl>
        <Point>
          <coordinates>
            43.93424,17.62104,0
          </coordinates>
        </Point>
      </Placemark>
      <Placemark>
        <name>جبل عان شيبان</name>
        <styleUrl>#icon-1739-DB4436-labelson-nodesc</styleUrl>
        <Point>
          <coordinates>
            44.287133,17.564714,0
          </coordinates>
        </Point>
      </Placemark>
      <Placemark>
        <name>جبل عشيرة</name>
        <styleUrl>#icon-1739-DB4436-labelson-nodesc</styleUrl>
        <Point>
          <coordinates>
            44.292412,18.103065,0
          </coordinates>
        </Point>
      </Placemark>
      <Placemark>
        <name>جبل كرابل</name>
        <styleUrl>#icon-1739-DB4436-labelson-nodesc</styleUrl>
        <Point>
          <coordinates>
            44.319041,17.478604,0
          </coordinates>
        </Point>
      </Placemark>
      <Placemark>
        <name>جبل كفار</name>
        <styleUrl>#icon-1739-DB4436-labelson-nodesc</styleUrl>
        <Point>
          <coordinates>
            43.826909,17.668934,0
          </coordinates>
        </Point>
      </Placemark>
      <Placemark>
        <name>جبل لنصاب</name>
        <styleUrl>#icon-1739-DB4436-labelson-nodesc</styleUrl>
        <Point>
          <coordinates>
            44.452658,17.5492,0
          </coordinates>
        </Point>
      </Placemark>
      <Placemark>
        <name>جبل محيضر</name>
        <styleUrl>#icon-1739-DB4436-labelson-nodesc</styleUrl>
        <Point>
          <coordinates>
            44.277563,17.67992,0
          </coordinates>
        </Point>
      </Placemark>
      <Placemark>
        <name>جبل مسعود</name>
        <styleUrl>#icon-1739-DB4436-labelson-nodesc</styleUrl>
        <Point>
          <coordinates>
            44.259818,17.623315,0
          </coordinates>
        </Point>
      </Placemark>
      <Placemark>
        <name>جبل مناك</name>
        <styleUrl>#icon-1739-DB4436-labelson-nodesc</styleUrl>
        <Point>
          <coordinates>
            44.405279,17.47515,0
          </coordinates>
        </Point>
      </Placemark>
      <Placemark>
        <name>جبل مي</name>
        <styleUrl>#icon-1739-DB4436-labelson-nodesc</styleUrl>
        <Point>
          <coordinates>
            44.244754,17.463241,0
          </coordinates>
        </Point>
      </Placemark>
      <Placemark>
        <name>جبل هويمل</name>
        <styleUrl>#icon-1739-DB4436-labelson-nodesc</styleUrl>
        <Point>
          <coordinates>
            46.004992,17.559843,0
          </coordinates>
        </Point>
      </Placemark>
      <Placemark>
        <name>جبل واسط</name>
        <styleUrl>#icon-1739-DB4436-labelson-nodesc</styleUrl>
        <Point>
          <coordinates>
            44.351892,19.190047,0
          </coordinates>
        </Point>
      </Placemark>
      <Placemark>
        <name>جبل والة</name>
        <styleUrl>#icon-1739-DB4436-labelson-nodesc</styleUrl>
        <Point>
          <coordinates>
            44.267006,17.962732,0
          </coordinates>
        </Point>
      </Placemark>
      <Placemark>
        <name>جبل وريك</name>
        <styleUrl>#icon-1739-DB4436-labelson-nodesc</styleUrl>
        <Point>
          <coordinates>
            44.445705,18.094053,0
          </coordinates>
        </Point>
      </Placemark>
      <Placemark>
        <name>جبل المذراع</name>
        <styleUrl>#icon-1739-DB4436-labelson-nodesc</styleUrl>
        <Point>
          <coordinates>
            43.736846,17.5118404,0
          </coordinates>
        </Point>
      </Placemark>
    </Folder>
    <Folder>
      <name>أسماء ثانوية</name>
      <Placemark>
        <name>ابا الرخم</name>
        <styleUrl>#icon-1739-757575-labelson-nodesc</styleUrl>
        <Point>
          <coordinates>
            44.220314,18.315067,0
          </coordinates>
        </Point>
      </Placemark>
      <Placemark>
        <name>ابار معمورة</name>
        <styleUrl>#icon-1739-757575-labelson-nodesc</styleUrl>
        <Point>
          <coordinates>
            50.573673,18.938198,0
          </coordinates>
        </Point>
      </Placemark>
      <Placemark>
        <name>ابار معمورة</name>
        <styleUrl>#icon-1739-757575-labelson-nodesc</styleUrl>
        <Point>
          <coordinates>
            50.639591,18.913307,0
          </coordinates>
        </Point>
      </Placemark>
      <Placemark>
        <name>ابرق العضب</name>
        <styleUrl>#icon-1739-757575-labelson-nodesc</styleUrl>
        <Point>
          <coordinates>
            44.479952,17.474613,0
          </coordinates>
        </Point>
      </Placemark>
      <Placemark>
        <name>ابو رخام</name>
        <styleUrl>#icon-1739-757575-labelson-nodesc</styleUrl>
        <Point>
          <coordinates>
            46.771975,18.232069,0
          </coordinates>
        </Point>
      </Placemark>
      <Placemark>
        <name>احرفيش العبر</name>
        <styleUrl>#icon-1739-757575-labelson-nodesc</styleUrl>
        <Point>
          <coordinates>
            47.142828,17.208452,0
          </coordinates>
        </Point>
      </Placemark>
      <Placemark>
        <name>الاذبرعين</name>
        <styleUrl>#icon-1739-757575-labelson-nodesc</styleUrl>
        <Point>
          <coordinates>
            44.782419,17.445946,0
          </coordinates>
        </Point>
      </Placemark>
      <Placemark>
        <name>البراق</name>
        <styleUrl>#icon-1739-757575-labelson-nodesc</styleUrl>
        <Point>
          <coordinates>
            44.682856,18.427334,0
          </coordinates>
        </Point>
      </Placemark>
      <Placemark>
        <name>الجلدة</name>
        <styleUrl>#icon-1739-757575-labelson-nodesc</styleUrl>
        <Point>
          <coordinates>
            46.539888,18.408194,0
          </coordinates>
        </Point>
      </Placemark>
      <Placemark>
        <name>الخربة</name>
        <styleUrl>#icon-1739-757575-labelson-nodesc</styleUrl>
        <Point>
          <coordinates>
            43.874245,17.661445,0
          </coordinates>
        </Point>
      </Placemark>
      <Placemark>
        <name>الخزيعبة</name>
        <styleUrl>#icon-1739-757575-labelson-nodesc</styleUrl>
        <Point>
          <coordinates>
            47.393904,17.161074,0
          </coordinates>
        </Point>
      </Placemark>
      <Placemark>
        <name>الرميثة</name>
        <styleUrl>#icon-1739-757575-labelson-nodesc</styleUrl>
        <Point>
          <coordinates>
            44.595459,19.235408,0
          </coordinates>
        </Point>
      </Placemark>
      <Placemark>
        <name>السحماء</name>
        <styleUrl>#icon-1739-757575-labelson-nodesc</styleUrl>
        <Point>
          <coordinates>
            45.876246,18.880262,0
          </coordinates>
        </Point>
      </Placemark>
      <Placemark>
        <name>السوادة</name>
        <styleUrl>#icon-1739-757575-labelson-nodesc</styleUrl>
        <Point>
          <coordinates>
            47.245331,17.354794,0
          </coordinates>
        </Point>
      </Placemark>
      <Placemark>
        <name>الشعبين</name>
        <styleUrl>#icon-1739-757575-labelson-nodesc</styleUrl>
        <Point>
          <coordinates>
            44.313462,17.593746,0
          </coordinates>
        </Point>
      </Placemark>
      <Placemark>
        <name>الشفاء</name>
        <styleUrl>#icon-1739-757575-labelson-nodesc</styleUrl>
        <Point>
          <coordinates>
            44.598227,19.130995,0
          </coordinates>
        </Point>
      </Placemark>
      <Placemark>
        <name>الصفة</name>
        <styleUrl>#icon-1739-757575-labelson-nodesc</styleUrl>
        <Point>
          <coordinates>
            45.350618,19.236975,0
          </coordinates>
        </Point>
      </Placemark>
      <Placemark>
        <name>العرنين</name>
        <styleUrl>#icon-1739-757575-labelson-nodesc</styleUrl>
        <Point>
          <coordinates>
            45.176725,19.341001,0
          </coordinates>
        </Point>
      </Placemark>
      <Placemark>
        <name>القعاميات</name>
        <styleUrl>#icon-1739-757575-labelson-nodesc</styleUrl>
        <Point>
          <coordinates>
            47.388239,17.951918,0
          </coordinates>
        </Point>
      </Placemark>
      <Placemark>
        <name>المغيراء</name>
        <styleUrl>#icon-1739-757575-labelson-nodesc</styleUrl>
        <Point>
          <coordinates>
            47.130747,16.979284,0
          </coordinates>
        </Point>
      </Placemark>
      <Placemark>
        <name>المكوكة</name>
        <styleUrl>#icon-1739-757575-labelson-nodesc</styleUrl>
        <Point>
          <coordinates>
            47.437699,17.73792,0
          </coordinates>
        </Point>
      </Placemark>
      <Placemark>
        <name>الملسة</name>
        <styleUrl>#icon-1739-757575-labelson-nodesc</styleUrl>
        <Point>
          <coordinates>
            47.558527,17.549543,0
          </coordinates>
        </Point>
      </Placemark>
      <Placemark>
        <name>المنخلي</name>
        <styleUrl>#icon-1739-757575-labelson-nodesc</styleUrl>
        <Point>
          <coordinates>
            45.771446,18.031826,0
          </coordinates>
        </Point>
      </Placemark>
      <Placemark>
        <name>المندفن</name>
        <styleUrl>#icon-1739-757575-labelson-nodesc</styleUrl>
        <Point>
          <coordinates>
            45.326972,18.559492,0
          </coordinates>
        </Point>
      </Placemark>
      <Placemark>
        <name>الهيثه</name>
        <styleUrl>#icon-1739-757575-labelson-nodesc</styleUrl>
        <Point>
          <coordinates>
            47.202416,17.795105,0
          </coordinates>
        </Point>
      </Placemark>
      <Placemark>
        <name>ام الحناش</name>
        <styleUrl>#icon-1739-757575-labelson-nodesc</styleUrl>
        <Point>
          <coordinates>
            47.904253,18.6341,0
          </coordinates>
        </Point>
      </Placemark>
      <Placemark>
        <name>ام السمر</name>
        <styleUrl>#icon-1739-757575-labelson-nodesc</styleUrl>
        <Point>
          <coordinates>
            47.322214,17.134917,0
          </coordinates>
        </Point>
      </Placemark>
      <Placemark>
        <name>ام الهجنه</name>
        <styleUrl>#icon-1739-757575-labelson-nodesc</styleUrl>
        <Point>
          <coordinates>
            47.350731,17.398052,0
          </coordinates>
        </Point>
      </Placemark>
      <Placemark>
        <name>ام فلوب</name>
        <styleUrl>#icon-1739-757575-labelson-nodesc</styleUrl>
        <Point>
          <coordinates>
            47.048693,19.27474,0
          </coordinates>
        </Point>
      </Placemark>
      <Placemark>
        <name>امهات مرو</name>
        <styleUrl>#icon-1739-757575-labelson-nodesc</styleUrl>
        <Point>
          <coordinates>
            48.00004,19.250021,0
          </coordinates>
        </Point>
      </Placemark>
      <Placemark>
        <name>بتراء ال دمنان</name>
        <styleUrl>#icon-1739-757575-labelson-nodesc</styleUrl>
        <Point>
          <coordinates>
            48.446016,18.035345,0
          </coordinates>
        </Point>
      </Placemark>
      <Placemark>
        <name>برقاء الغضب</name>
        <styleUrl>#icon-1739-757575-labelson-nodesc</styleUrl>
        <Point>
          <coordinates>
            44.456434,17.534781,0
          </coordinates>
        </Point>
      </Placemark>
      <Placemark>
        <name>برقان الكساره</name>
        <styleUrl>#icon-1739-757575-labelson-nodesc</styleUrl>
        <Point>
          <coordinates>
            47.297945,17.487831,0
          </coordinates>
        </Point>
      </Placemark>
      <Placemark>
        <name>بني دلهام</name>
        <styleUrl>#icon-1739-757575-labelson-nodesc</styleUrl>
        <Point>
          <coordinates>
            47.78615,18.497114,0
          </coordinates>
        </Point>
      </Placemark>
      <Placemark>
        <name>تقورا</name>
        <styleUrl>#icon-1739-757575-labelson-nodesc</styleUrl>
        <Point>
          <coordinates>
            44.592776,18.951395,0
          </coordinates>
        </Point>
      </Placemark>
      <Placemark>
        <name>جنوبي القعاميات</name>
        <styleUrl>#icon-1739-757575-labelson-nodesc</styleUrl>
        <Point>
          <coordinates>
            47.666674,17.999983,0
          </coordinates>
        </Point>
      </Placemark>
      <Placemark>
        <name>حاذ العترة</name>
        <styleUrl>#icon-1739-757575-labelson-nodesc</styleUrl>
        <Point>
          <coordinates>
            46.416636,19.333448,0
          </coordinates>
        </Point>
      </Placemark>
      <Placemark>
        <name>حاذ العترة</name>
        <styleUrl>#icon-1739-757575-labelson-nodesc</styleUrl>
        <Point>
          <coordinates>
            49.336939,19.343405,0
          </coordinates>
        </Point>
      </Placemark>
      <Placemark>
        <name>حاوي ال سليمان</name>
        <styleUrl>#icon-1739-757575-labelson-nodesc</styleUrl>
        <Point>
          <coordinates>
            47.925196,17.742834,0
          </coordinates>
        </Point>
      </Placemark>
      <Placemark>
        <name>حزم ابن قنير</name>
        <styleUrl>#icon-1739-757575-labelson-nodesc</styleUrl>
        <Point>
          <coordinates>
            47.356396,17.599154,0
          </coordinates>
        </Point>
      </Placemark>
      <Placemark>
        <name>حزم محسنه</name>
        <styleUrl>#icon-1739-757575-labelson-nodesc</styleUrl>
        <Point>
          <coordinates>
            47.429781,17.308102,0
          </coordinates>
        </Point>
      </Placemark>
      <Placemark>
        <name>حلاة شرورة</name>
        <styleUrl>#icon-1739-757575-labelson-nodesc</styleUrl>
        <Point>
          <coordinates>
            47.098475,17.221842,0
          </coordinates>
        </Point>
      </Placemark>
      <Placemark>
        <name>خرفية الخشل</name>
        <styleUrl>#icon-1739-757575-labelson-nodesc</styleUrl>
        <Point>
          <coordinates>
            46.665545,18.121862,0
          </coordinates>
        </Point>
      </Placemark>
      <Placemark>
        <name>خرفية العازب</name>
        <styleUrl>#icon-1739-757575-labelson-nodesc</styleUrl>
        <Point>
          <coordinates>
            48.213587,18.781729,0
          </coordinates>
        </Point>
      </Placemark>
      <Placemark>
        <name>خشم غراب</name>
        <styleUrl>#icon-1739-757575-labelson-nodesc</styleUrl>
        <Point>
          <coordinates>
            45.153637,18.897107,0
          </coordinates>
        </Point>
      </Placemark>
      <Placemark>
        <name>خور ابا العشوش</name>
        <styleUrl>#icon-1739-757575-labelson-nodesc</styleUrl>
        <Point>
          <coordinates>
            51.180668,19.019737,0
          </coordinates>
        </Point>
      </Placemark>
      <Placemark>
        <name>خور ابا العفن</name>
        <styleUrl>#icon-1739-757575-labelson-nodesc</styleUrl>
        <Point>
          <coordinates>
            50.719242,18.906956,0
          </coordinates>
        </Point>
      </Placemark>
      <Placemark>
        <name>خور ابن العبد</name>
        <styleUrl>#icon-1739-757575-labelson-nodesc</styleUrl>
        <Point>
          <coordinates>
            51.237659,19.065571,0
          </coordinates>
        </Point>
      </Placemark>
      <Placemark>
        <name>خور ابن العوضي</name>
        <styleUrl>#icon-1739-757575-labelson-nodesc</styleUrl>
        <Point>
          <coordinates>
            51.526051,19.08514,0
          </coordinates>
        </Point>
      </Placemark>
      <Placemark>
        <name>خور ابن حمودة</name>
        <styleUrl>#icon-1739-757575-labelson-nodesc</styleUrl>
        <Point>
          <coordinates>
            51.686211,18.962746,0
          </coordinates>
        </Point>
      </Placemark>
      <Placemark>
        <name>خور ابن علوبة</name>
        <styleUrl>#icon-1739-757575-labelson-nodesc</styleUrl>
        <Point>
          <coordinates>
            51.294308,18.967724,0
          </coordinates>
        </Point>
      </Placemark>
      <Placemark>
        <name>خور الاذاني</name>
        <styleUrl>#icon-1739-757575-labelson-nodesc</styleUrl>
        <Point>
          <coordinates>
            50.868587,18.997421,0
          </coordinates>
        </Point>
      </Placemark>
      <Placemark>
        <name>خور الرهيوي</name>
        <styleUrl>#icon-1739-757575-labelson-nodesc</styleUrl>
        <Point>
          <coordinates>
            51.237659,19.020596,0
          </coordinates>
        </Point>
      </Placemark>
      <Placemark>
        <name>خور العطر</name>
        <styleUrl>#icon-1739-757575-labelson-nodesc</styleUrl>
        <Point>
          <coordinates>
            51.521244,18.962402,0
          </coordinates>
        </Point>
      </Placemark>
      <Placemark>
        <name>خور المحز</name>
        <styleUrl>#icon-1739-757575-labelson-nodesc</styleUrl>
        <Point>
          <coordinates>
            51.024113,18.949013,0
          </coordinates>
        </Point>
      </Placemark>
      <Placemark>
        <name>خور المناهيل</name>
        <styleUrl>#icon-1739-757575-labelson-nodesc</styleUrl>
        <Point>
          <coordinates>
            51.401253,18.910217,0
          </coordinates>
        </Point>
      </Placemark>
      <Placemark>
        <name>خور الهطالي</name>
        <styleUrl>#icon-1739-757575-labelson-nodesc</styleUrl>
        <Point>
          <coordinates>
            51.330185,18.913307,0
          </coordinates>
        </Point>
      </Placemark>
      <Placemark>
        <name>خور سبلاء</name>
        <styleUrl>#icon-1739-757575-labelson-nodesc</styleUrl>
        <Point>
          <coordinates>
            51.132431,19.006004,0
          </coordinates>
        </Point>
      </Placemark>
      <Placemark>
        <name>خور صبغة</name>
        <styleUrl>#icon-1739-757575-labelson-nodesc</styleUrl>
        <Point>
          <coordinates>
            51.182384,19.115868,0
          </coordinates>
        </Point>
      </Placemark>
      <Placemark>
        <name>خور صبيغين</name>
        <styleUrl>#icon-1739-757575-labelson-nodesc</styleUrl>
        <Point>
          <coordinates>
            51.213112,19.092178,0
          </coordinates>
        </Point>
      </Placemark>
      <Placemark>
        <name>خور مضيحة</name>
        <styleUrl>#icon-1739-757575-labelson-nodesc</styleUrl>
        <Point>
          <coordinates>
            50.981884,18.983173,0
          </coordinates>
        </Point>
      </Placemark>
      <Placemark>
        <name>خيط سحيم</name>
        <styleUrl>#icon-1739-757575-labelson-nodesc</styleUrl>
        <Point>
          <coordinates>
            51.931772,19.284353,0
          </coordinates>
        </Point>
      </Placemark>
      <Placemark>
        <name>رثمة طن</name>
        <styleUrl>#icon-1739-757575-labelson-nodesc</styleUrl>
        <Point>
          <coordinates>
            47.804003,17.300978,0
          </coordinates>
        </Point>
      </Placemark>
      <Placemark>
        <name>رقعة ابن خشمان</name>
        <styleUrl>#icon-1739-757575-labelson-nodesc</styleUrl>
        <Point>
          <coordinates>
            48.09411,18.830481,0
          </coordinates>
        </Point>
      </Placemark>
      <Placemark>
        <name>رقعة صامد</name>
        <styleUrl>#icon-1739-757575-labelson-nodesc</styleUrl>
        <Point>
          <coordinates>
            48.086901,18.63513,0
          </coordinates>
        </Point>
      </Placemark>
      <Placemark>
        <name>رملة القبور</name>
        <styleUrl>#icon-1739-757575-labelson-nodesc</styleUrl>
        <Point>
          <coordinates>
            49.579325,18.624487,0
          </coordinates>
        </Point>
      </Placemark>
      <Placemark>
        <name>ريش قعمان</name>
        <styleUrl>#icon-1739-757575-labelson-nodesc</styleUrl>
        <Point>
          <coordinates>
            45.83024,18.742933,0
          </coordinates>
        </Point>
      </Placemark>
      <Placemark>
        <name>سليل خضخوض</name>
        <styleUrl>#icon-1739-757575-labelson-nodesc</styleUrl>
        <Point>
          <coordinates>
            47.395792,17.031469,0
          </coordinates>
        </Point>
      </Placemark>
      <Placemark>
        <name>سليل مقرب</name>
        <styleUrl>#icon-1739-757575-labelson-nodesc</styleUrl>
        <Point>
          <coordinates>
            47.283869,17.080221,0
          </coordinates>
        </Point>
      </Placemark>
      <Placemark>
        <name>شق البيضاء</name>
        <styleUrl>#icon-1739-757575-labelson-nodesc</styleUrl>
        <Point>
          <coordinates>
            45.619869,17.392302,0
          </coordinates>
        </Point>
      </Placemark>
      <Placemark>
        <name>شق عفيف العريق</name>
        <styleUrl>#icon-1739-757575-labelson-nodesc</styleUrl>
        <Point>
          <coordinates>
            45.016136,17.569542,0
          </coordinates>
        </Point>
      </Placemark>
      <Placemark>
        <name>شمالي القعاميات</name>
        <styleUrl>#icon-1739-757575-labelson-nodesc</styleUrl>
        <Point>
          <coordinates>
            48.833284,18.916655,0
          </coordinates>
        </Point>
      </Placemark>
      <Placemark>
        <name>ضباع الاحاشر</name>
        <styleUrl>#icon-1739-757575-labelson-nodesc</styleUrl>
        <Point>
          <coordinates>
            45.754452,17.294455,0
          </coordinates>
        </Point>
      </Placemark>
      <Placemark>
        <name>عان حبونا</name>
        <styleUrl>#icon-1739-757575-labelson-nodesc</styleUrl>
        <Point>
          <coordinates>
            44.656205,17.79371,0
          </coordinates>
        </Point>
      </Placemark>
      <Placemark>
        <name>عد البديع</name>
        <styleUrl>#icon-1739-757575-labelson-nodesc</styleUrl>
        <Point>
          <coordinates>
            51.047802,18.860779,0
          </coordinates>
        </Point>
      </Placemark>
      <Placemark>
        <name>عد الخرخير</name>
        <styleUrl>#icon-1739-757575-labelson-nodesc</styleUrl>
        <Point>
          <coordinates>
            51.138267,18.86816,0
          </coordinates>
        </Point>
      </Placemark>
      <Placemark>
        <name>عد خرخر</name>
        <styleUrl>#icon-1739-757575-labelson-nodesc</styleUrl>
        <Point>
          <coordinates>
            51.164875,18.869362,0
          </coordinates>
        </Point>
      </Placemark>
      <Placemark>
        <name>عكروم الغزال</name>
        <styleUrl>#icon-1739-757575-labelson-nodesc</styleUrl>
        <Point>
          <coordinates>
            50.569811,19.024801,0
          </coordinates>
        </Point>
      </Placemark>
      <Placemark>
        <name>غار جهامان</name>
        <styleUrl>#icon-1739-757575-labelson-nodesc</styleUrl>
        <Point>
          <coordinates>
            50.536766,18.933907,0
          </coordinates>
        </Point>
      </Placemark>
      <Placemark>
        <name>فرده</name>
        <styleUrl>#icon-1739-757575-labelson-nodesc</styleUrl>
        <Point>
          <coordinates>
            44.504499,17.918873,0
          </coordinates>
        </Point>
      </Placemark>
      <Placemark>
        <name>قرن الوديعة</name>
        <styleUrl>#icon-1739-757575-labelson-nodesc</styleUrl>
        <Point>
          <coordinates>
            46.954279,17.008123,0
          </coordinates>
        </Point>
      </Placemark>
      <Placemark>
        <name>قرن خباش</name>
        <styleUrl>#icon-1739-757575-labelson-nodesc</styleUrl>
        <Point>
          <coordinates>
            44.695344,17.458069,0
          </coordinates>
        </Point>
      </Placemark>
      <Placemark>
        <name>قلمة ابن سلطان</name>
        <styleUrl>#icon-1739-757575-labelson-nodesc</styleUrl>
        <Point>
          <coordinates>
            46.152041,18.922963,0
          </coordinates>
        </Point>
      </Placemark>
      <Placemark>
        <name>قلمة ابن عصفور</name>
        <styleUrl>#icon-1739-757575-labelson-nodesc</styleUrl>
        <Point>
          <coordinates>
            48.714237,18.43214,0
          </coordinates>
        </Point>
      </Placemark>
      <Placemark>
        <name>قلمة ابو القرب</name>
        <styleUrl>#icon-1739-757575-labelson-nodesc</styleUrl>
        <Point>
          <coordinates>
            47.789712,18.754628,0
          </coordinates>
        </Point>
      </Placemark>
      <Placemark>
        <name>قلمة الحرشاء</name>
        <styleUrl>#icon-1739-757575-labelson-nodesc</styleUrl>
        <Point>
          <coordinates>
            51.712625,19.343512,0
          </coordinates>
        </Point>
      </Placemark>
      <Placemark>
        <name>قلمة الطويلة</name>
        <styleUrl>#icon-1739-757575-labelson-nodesc</styleUrl>
        <Point>
          <coordinates>
            48.404388,18.839149,0
          </coordinates>
        </Point>
      </Placemark>
      <Placemark>
        <name>قلمة ام الشلوخ</name>
        <styleUrl>#icon-1739-757575-labelson-nodesc</styleUrl>
        <Point>
          <coordinates>
            49.199524,18.707657,0
          </coordinates>
        </Point>
      </Placemark>
      <Placemark>
        <name>قلمة ام العلاقاء</name>
        <styleUrl>#icon-1739-757575-labelson-nodesc</styleUrl>
        <Point>
          <coordinates>
            46.424618,19.451122,0
          </coordinates>
        </Point>
      </Placemark>
      <Placemark>
        <name>قلمة ام شداد</name>
        <styleUrl>#icon-1739-757575-labelson-nodesc</styleUrl>
        <Point>
          <coordinates>
            46.333122,18.723278,0
          </coordinates>
        </Point>
      </Placemark>
      <Placemark>
        <name>قلمة حمراء نثيل</name>
        <styleUrl>#icon-1739-757575-labelson-nodesc</styleUrl>
        <Point>
          <coordinates>
            46.508217,18.493595,0
          </coordinates>
        </Point>
      </Placemark>
      <Placemark>
        <name>قلمة خجيمة</name>
        <styleUrl>#icon-1739-757575-labelson-nodesc</styleUrl>
        <Point>
          <coordinates>
            47.115254,18.300755,0
          </coordinates>
        </Point>
      </Placemark>
      <Placemark>
        <name>قلمة قعمان</name>
        <styleUrl>#icon-1739-757575-labelson-nodesc</styleUrl>
        <Point>
          <coordinates>
            45.924397,18.734779,0
          </coordinates>
        </Point>
      </Placemark>
      <Placemark>
        <name>قلمة مرقعان</name>
        <styleUrl>#icon-1739-757575-labelson-nodesc</styleUrl>
        <Point>
          <coordinates>
            48.90152,18.538399,0
          </coordinates>
        </Point>
      </Placemark>
      <Placemark>
        <name>قلمة مزوعان</name>
        <styleUrl>#icon-1739-757575-labelson-nodesc</styleUrl>
        <Point>
          <coordinates>
            46.133823,18.530846,0
          </coordinates>
        </Point>
      </Placemark>
      <Placemark>
        <name>قوز الدامر</name>
        <styleUrl>#icon-1739-757575-labelson-nodesc</styleUrl>
        <Point>
          <coordinates>
            47.304296,17.730303,0
          </coordinates>
        </Point>
      </Placemark>
      <Placemark>
        <name>مختم هضبات</name>
        <styleUrl>#icon-1739-757575-labelson-nodesc</styleUrl>
        <Point>
          <coordinates>
            49.84643,18.556166,0
          </coordinates>
        </Point>
      </Placemark>
      <Placemark>
        <name>مركز الخضراء</name>
        <styleUrl>#icon-1739-757575-labelson-nodesc</styleUrl>
        <Point>
          <coordinates>
            44.719419,17.444701,0
          </coordinates>
        </Point>
      </Placemark>
      <Placemark>
        <name>مسقا بشر القديم</name>
        <styleUrl>#icon-1739-757575-labelson-nodesc</styleUrl>
        <Point>
          <coordinates>
            47.27917,17.066381,0
          </coordinates>
        </Point>
      </Placemark>
      <Placemark>
        <name>مشابك الخشناء</name>
        <styleUrl>#icon-1739-757575-labelson-nodesc</styleUrl>
        <Point>
          <coordinates>
            47.918329,18.191557,0
          </coordinates>
        </Point>
      </Placemark>
      <Placemark>
        <name>مشابك الملح</name>
        <styleUrl>#icon-1739-757575-labelson-nodesc</styleUrl>
        <Point>
          <coordinates>
            49.175234,18.409224,0
          </coordinates>
        </Point>
      </Placemark>
      <Placemark>
        <name>مشاش الرمضة</name>
        <styleUrl>#icon-1739-757575-labelson-nodesc</styleUrl>
        <Point>
          <coordinates>
            45.346413,19.395075,0
          </coordinates>
        </Point>
      </Placemark>
      <Placemark>
        <name>مشاش الرمضة</name>
        <styleUrl>#icon-1739-757575-labelson-nodesc</styleUrl>
        <Point>
          <coordinates>
            45.361176,19.305553,0
          </coordinates>
        </Point>
      </Placemark>
      <Placemark>
        <name>مغدرات</name>
        <styleUrl>#icon-1739-757575-labelson-nodesc</styleUrl>
        <Point>
          <coordinates>
            47.333307,18.08341,0
          </coordinates>
        </Point>
      </Placemark>
      <Placemark>
        <name>منتزة موعاة</name>
        <styleUrl>#icon-1739-757575-labelson-nodesc</styleUrl>
        <Point>
          <coordinates>
            43.758652,17.626297,0
          </coordinates>
        </Point>
      </Placemark>
      <Placemark>
        <name>منقع نجران</name>
        <styleUrl>#icon-1739-757575-labelson-nodesc</styleUrl>
        <Point>
          <coordinates>
            45.055854,17.627156,0
          </coordinates>
        </Point>
      </Placemark>
      <Placemark>
        <name>هوات العيد</name>
        <styleUrl>#icon-1739-757575-labelson-nodesc</styleUrl>
        <Point>
          <coordinates>
            48.522234,18.198423,0
          </coordinates>
        </Point>
      </Placemark>
      <Placemark>
        <name>هيشة ردنة</name>
        <styleUrl>#icon-1739-757575-labelson-nodesc</styleUrl>
        <Point>
          <coordinates>
            47.34189,17.247763,0
          </coordinates>
        </Point>
      </Placemark>
    </Folder>
    <Folder>
      <name>أسماء رئيسة</name>
      <Placemark>
        <name>آل أبوغبار</name>
        <styleUrl>#icon-1739-DB4436-labelson-nodesc</styleUrl>
        <Point>
          <coordinates>
            43.773007,17.738349,0
          </coordinates>
        </Point>
      </Placemark>
      <Placemark>
        <name>ابا السعود</name>
        <styleUrl>#icon-1739-DB4436-labelson-nodesc</styleUrl>
        <Point>
          <coordinates>
            44.112103,17.456524,0
          </coordinates>
        </Point>
      </Placemark>
      <Placemark>
        <name>ابو همدان</name>
        <styleUrl>#icon-1739-DB4436-labelson-nodesc</styleUrl>
        <Point>
          <coordinates>
            44.076955,17.452662,0
          </coordinates>
        </Point>
      </Placemark>
      <Placemark>
        <name>ال بحري</name>
        <styleUrl>#icon-1739-DB4436-labelson-nodesc</styleUrl>
        <Point>
          <coordinates>
            43.997777,17.793603,0
          </coordinates>
        </Point>
      </Placemark>
      <Placemark>
        <name>ال خفران</name>
        <styleUrl>#icon-1739-DB4436-labelson-nodesc</styleUrl>
        <Point>
          <coordinates>
            43.756614,17.599561,0
          </coordinates>
        </Point>
      </Placemark>
      <Placemark>
        <name>ال راكه -ديار يام</name>
        <styleUrl>#icon-1739-DB4436-labelson-nodesc</styleUrl>
        <Point>
          <coordinates>
            44.115708,18.142354,0
          </coordinates>
        </Point>
      </Placemark>
      <Placemark>
        <name>ال صومان</name>
        <styleUrl>#icon-1739-DB4436-labelson-nodesc</styleUrl>
        <Point>
          <coordinates>
            43.77172,17.58673,0
          </coordinates>
        </Point>
      </Placemark>
      <Placemark>
        <name>ال عريج</name>
        <styleUrl>#icon-1739-DB4436-labelson-nodesc</styleUrl>
        <Point>
          <coordinates>
            43.758609,17.493196,0
          </coordinates>
        </Point>
      </Placemark>
      <Placemark>
        <name>ال قنه</name>
        <styleUrl>#icon-1739-DB4436-labelson-nodesc</styleUrl>
        <Point>
          <coordinates>
            43.758545,17.72717,0
          </coordinates>
        </Point>
      </Placemark>
      <Placemark>
        <name>الاخذود</name>
        <styleUrl>#icon-1739-DB4436-labelson-nodesc</styleUrl>
        <Point>
          <coordinates>
            44.179716,17.477596,0
          </coordinates>
        </Point>
      </Placemark>
      <Placemark>
        <name>البيضاء</name>
        <styleUrl>#icon-1739-DB4436-labelson-nodesc</styleUrl>
        <Point>
          <coordinates>
            44.357493,18.208594,0
          </coordinates>
        </Point>
      </Placemark>
      <Placemark>
        <name>الجفة</name>
        <styleUrl>#icon-1739-DB4436-labelson-nodesc</styleUrl>
        <Point>
          <coordinates>
            43.915272,17.768154,0
          </coordinates>
        </Point>
      </Placemark>
      <Placemark>
        <name>الجهوش - آل عيسى</name>
        <styleUrl>#icon-1739-DB4436-labelson-nodesc</styleUrl>
        <Point>
          <coordinates>
            43.74861,17.599454,0
          </coordinates>
        </Point>
      </Placemark>
      <Placemark>
        <name>الجوشن</name>
        <styleUrl>#icon-1739-DB4436-labelson-nodesc</styleUrl>
        <Point>
          <coordinates>
            43.861649,18.137956,0
          </coordinates>
        </Point>
      </Placemark>
      <Placemark>
        <name>الحاجر</name>
        <styleUrl>#icon-1739-DB4436-labelson-nodesc</styleUrl>
        <Point>
          <coordinates>
            43.621817,17.501693,0
          </coordinates>
        </Point>
      </Placemark>
      <Placemark>
        <name>الحجف</name>
        <styleUrl>#icon-1739-DB4436-labelson-nodesc</styleUrl>
        <Point>
          <coordinates>
            44.164181,17.869949,0
          </coordinates>
        </Point>
      </Placemark>
      <Placemark>
        <name>الحرشف</name>
        <styleUrl>#icon-1739-DB4436-labelson-nodesc</styleUrl>
        <Point>
          <coordinates>
            43.882227,17.668934,0
          </coordinates>
        </Point>
      </Placemark>
      <Placemark>
        <name>الحصينية</name>
        <styleUrl>#icon-1739-DB4436-labelson-nodesc</styleUrl>
        <Point>
          <coordinates>
            44.442852,17.81343,0
          </coordinates>
        </Point>
      </Placemark>
      <Placemark>
        <name>الحصينية</name>
        <styleUrl>#icon-1739-DB4436-labelson-nodesc</styleUrl>
        <Point>
          <coordinates>
            44.445491,17.814631,0
          </coordinates>
        </Point>
      </Placemark>
      <Placemark>
        <name>الحضن</name>
        <styleUrl>#icon-1739-DB4436-labelson-nodesc</styleUrl>
        <Point>
          <coordinates>
            44.121609,17.460451,0
          </coordinates>
        </Point>
      </Placemark>
      <Placemark>
        <name>الحمر</name>
        <styleUrl>#icon-1739-DB4436-labelson-nodesc</styleUrl>
        <Point>
          <coordinates>
            44.181454,17.469485,0
          </coordinates>
        </Point>
      </Placemark>
      <Placemark>
        <name>الحمضة</name>
        <styleUrl>#icon-1739-DB4436-labelson-nodesc</styleUrl>
        <Point>
          <coordinates>
            43.720243,17.856753,0
          </coordinates>
        </Point>
      </Placemark>
      <Placemark>
        <name>الحياء</name>
        <styleUrl>#icon-1739-DB4436-labelson-nodesc</styleUrl>
        <Point>
          <coordinates>
            43.800559,17.970006,0
          </coordinates>
        </Point>
      </Placemark>
      <Placemark>
        <name>الخالدة</name>
        <styleUrl>#icon-1739-DB4436-labelson-nodesc</styleUrl>
        <Point>
          <coordinates>
            45.100744,18.94691,0
          </coordinates>
        </Point>
      </Placemark>
      <Placemark>
        <name>الخضراء</name>
        <styleUrl>#icon-1739-DB4436-labelson-nodesc</styleUrl>
        <Point>
          <coordinates>
            44.436951,17.54036,0
          </coordinates>
        </Point>
      </Placemark>
      <Placemark>
        <name>الرحاب</name>
        <styleUrl>#icon-1739-DB4436-labelson-nodesc</styleUrl>
        <Point>
          <coordinates>
            43.896904,18.010905,0
          </coordinates>
        </Point>
      </Placemark>
      <Placemark>
        <name>الرفاع</name>
        <styleUrl>#icon-1739-DB4436-labelson-nodesc</styleUrl>
        <Point>
          <coordinates>
            44.274731,18.436174,0
          </coordinates>
        </Point>
      </Placemark>
      <Placemark>
        <name>الرون - آل العون</name>
        <styleUrl>#icon-1739-DB4436-labelson-nodesc</styleUrl>
        <Point>
          <coordinates>
            43.744984,17.592223,0
          </coordinates>
        </Point>
      </Placemark>
      <Placemark>
        <name>الزبادين</name>
        <styleUrl>#icon-1739-DB4436-labelson-nodesc</styleUrl>
        <Point>
          <coordinates>
            43.744168,17.614582,0
          </coordinates>
        </Point>
      </Placemark>
      <Placemark>
        <name>الزبادين</name>
        <styleUrl>#icon-1739-DB4436-labelson-nodesc</styleUrl>
        <Point>
          <coordinates>
            43.77305,17.573683,0
          </coordinates>
        </Point>
      </Placemark>
      <Placemark>
        <name>الزور الابيض</name>
        <styleUrl>#icon-1739-DB4436-labelson-nodesc</styleUrl>
        <Point>
          <coordinates>
            43.942502,17.854607,0
          </coordinates>
        </Point>
      </Placemark>
      <Placemark>
        <name>السود</name>
        <styleUrl>#icon-1739-DB4436-labelson-nodesc</styleUrl>
        <Point>
          <coordinates>
            44.014835,17.570915,0
          </coordinates>
        </Point>
      </Placemark>
      <Placemark>
        <name>الشط - ابن منصر</name>
        <styleUrl>#icon-1739-DB4436-labelson-nodesc</styleUrl>
        <Point>
          <coordinates>
            43.746936,17.596385,0
          </coordinates>
        </Point>
      </Placemark>
      <Placemark>
        <name>الشلال</name>
        <styleUrl>#icon-1739-DB4436-labelson-nodesc</styleUrl>
        <Point>
          <coordinates>
            44.186411,17.515125,0
          </coordinates>
        </Point>
      </Placemark>
      <Placemark>
        <name>الصفاء</name>
        <styleUrl>#icon-1739-DB4436-labelson-nodesc</styleUrl>
        <Point>
          <coordinates>
            44.076848,17.465,0
          </coordinates>
        </Point>
      </Placemark>
      <Placemark>
        <name>الصفاح</name>
        <styleUrl>#icon-1739-DB4436-labelson-nodesc</styleUrl>
        <Point>
          <coordinates>
            43.870254,18.297386,0
          </coordinates>
        </Point>
      </Placemark>
      <Placemark>
        <name>الظاهرة - آل عبية</name>
        <styleUrl>#icon-1739-DB4436-labelson-nodesc</styleUrl>
        <Point>
          <coordinates>
            43.747473,17.594433,0
          </coordinates>
        </Point>
      </Placemark>
      <Placemark>
        <name>العرقوب</name>
        <styleUrl>#icon-1739-DB4436-labelson-nodesc</styleUrl>
        <Point>
          <coordinates>
            43.838604,17.74807,0
          </coordinates>
        </Point>
      </Placemark>
      <Placemark>
        <name>العريسة</name>
        <styleUrl>#icon-1739-DB4436-labelson-nodesc</styleUrl>
        <Point>
          <coordinates>
            44.30769,17.559071,0
          </coordinates>
        </Point>
      </Placemark>
      <Placemark>
        <name>العضبات</name>
        <styleUrl>#icon-1739-DB4436-labelson-nodesc</styleUrl>
        <Point>
          <coordinates>
            44.075582,18.164349,0
          </coordinates>
        </Point>
      </Placemark>
      <Placemark>
        <name>العين و القرين</name>
        <styleUrl>#icon-1739-DB4436-labelson-nodesc</styleUrl>
        <Point>
          <coordinates>
            44.160233,18.127141,0
          </coordinates>
        </Point>
      </Placemark>
      <Placemark>
        <name>الغافية</name>
        <styleUrl>#icon-1739-DB4436-labelson-nodesc</styleUrl>
        <Point>
          <coordinates>
            43.980911,18.041933,0
          </coordinates>
        </Point>
      </Placemark>
      <Placemark>
        <name>الغيظه</name>
        <styleUrl>#icon-1739-DB4436-labelson-nodesc</styleUrl>
        <Point>
          <coordinates>
            44.076526,17.476845,0
          </coordinates>
        </Point>
      </Placemark>
      <Placemark>
        <name>الغييبه</name>
        <styleUrl>#icon-1739-DB4436-labelson-nodesc</styleUrl>
        <Point>
          <coordinates>
            44.366119,18.220289,0
          </coordinates>
        </Point>
      </Placemark>
      <Placemark>
        <name>الفايجه</name>
        <styleUrl>#icon-1739-DB4436-labelson-nodesc</styleUrl>
        <Point>
          <coordinates>
            43.961663,17.849457,0
          </coordinates>
        </Point>
      </Placemark>
      <Placemark>
        <name>الفرع</name>
        <styleUrl>#icon-1739-DB4436-labelson-nodesc</styleUrl>
        <Point>
          <coordinates>
            43.768909,17.672625,0
          </coordinates>
        </Point>
      </Placemark>
      <Placemark>
        <name>القرضية</name>
        <styleUrl>#icon-1739-DB4436-labelson-nodesc</styleUrl>
        <Point>
          <coordinates>
            44.391632,17.809138,0
          </coordinates>
        </Point>
      </Placemark>
      <Placemark>
        <name>القرن</name>
        <styleUrl>#icon-1739-DB4436-labelson-nodesc</styleUrl>
        <Point>
          <coordinates>
            43.713183,17.722063,0
          </coordinates>
        </Point>
      </Placemark>
      <Placemark>
        <name>المجمع</name>
        <styleUrl>#icon-1739-DB4436-labelson-nodesc</styleUrl>
        <Point>
          <coordinates>
            43.966255,17.764206,0
          </coordinates>
        </Point>
      </Placemark>
      <Placemark>
        <name>المحال</name>
        <styleUrl>#icon-1739-DB4436-labelson-nodesc</styleUrl>
        <Point>
          <coordinates>
            43.754597,17.721226,0
          </coordinates>
        </Point>
      </Placemark>
      <Placemark>
        <name>المحيريق</name>
        <styleUrl>#icon-1739-DB4436-labelson-nodesc</styleUrl>
        <Point>
          <coordinates>
            43.707497,17.901664,0
          </coordinates>
        </Point>
      </Placemark>
      <Placemark>
        <name>المختلف</name>
        <styleUrl>#icon-1739-DB4436-labelson-nodesc</styleUrl>
        <Point>
          <coordinates>
            43.714728,17.708373,0
          </coordinates>
        </Point>
      </Placemark>
      <Placemark>
        <name>المراجل</name>
        <styleUrl>#icon-1739-DB4436-labelson-nodesc</styleUrl>
        <Point>
          <coordinates>
            43.963337,17.862504,0
          </coordinates>
        </Point>
      </Placemark>
      <Placemark>
        <name>المشعليه</name>
        <styleUrl>#icon-1739-DB4436-labelson-nodesc</styleUrl>
        <Point>
          <coordinates>
            44.448302,17.755945,0
          </coordinates>
        </Point>
      </Placemark>
      <Placemark>
        <name>المشنة - بير ابن داحن</name>
        <styleUrl>#icon-1739-DB4436-labelson-nodesc</styleUrl>
        <Point>
          <coordinates>
            43.741937,17.59557,0
          </coordinates>
        </Point>
      </Placemark>
      <Placemark>
        <name>المليحه</name>
        <styleUrl>#icon-1739-DB4436-labelson-nodesc</styleUrl>
        <Point>
          <coordinates>
            43.806353,17.954278,0
          </coordinates>
        </Point>
      </Placemark>
      <Placemark>
        <name>الموفجة</name>
        <styleUrl>#icon-1739-DB4436-labelson-nodesc</styleUrl>
        <Point>
          <coordinates>
            44.053695,17.437234,0
          </coordinates>
        </Point>
      </Placemark>
      <Placemark>
        <name>النبعه</name>
        <styleUrl>#icon-1739-DB4436-labelson-nodesc</styleUrl>
        <Point>
          <coordinates>
            43.982134,17.802572,0
          </coordinates>
        </Point>
      </Placemark>
      <Placemark>
        <name>النقعاء</name>
        <styleUrl>#icon-1739-DB4436-labelson-nodesc</styleUrl>
        <Point>
          <coordinates>
            43.949325,17.698438,0
          </coordinates>
        </Point>
      </Placemark>
      <Placemark>
        <name>النكاسي</name>
        <styleUrl>#icon-1739-DB4436-labelson-nodesc</styleUrl>
        <Point>
          <coordinates>
            44.327517,17.566195,0
          </coordinates>
        </Point>
      </Placemark>
      <Placemark>
        <name>الهييله</name>
        <styleUrl>#icon-1739-DB4436-labelson-nodesc</styleUrl>
        <Point>
          <coordinates>
            44.407511,18.172781,0
          </coordinates>
        </Point>
      </Placemark>
      <Placemark>
        <name>الواديين</name>
        <styleUrl>#icon-1739-DB4436-labelson-nodesc</styleUrl>
        <Point>
          <coordinates>
            44.001639,18.282774,0
          </coordinates>
        </Point>
      </Placemark>
      <Placemark>
        <name>الوديعة</name>
        <styleUrl>#icon-1739-DB4436-labelson-nodesc</styleUrl>
        <Point>
          <coordinates>
            47.094655,17.06636,0
          </coordinates>
        </Point>
      </Placemark>
      <Placemark>
        <name>الوطن</name>
        <styleUrl>#icon-1739-DB4436-labelson-nodesc</styleUrl>
        <Point>
          <coordinates>
            43.756206,17.724144,0
          </coordinates>
        </Point>
      </Placemark>
      <Placemark>
        <name>بدر الجنوب</name>
        <styleUrl>#icon-1739-DB4436-labelson-nodesc</styleUrl>
        <Point>
          <coordinates>
            43.719707,17.888575,0
          </coordinates>
        </Point>
      </Placemark>
      <Placemark>
        <name>بير العطف - آل عردومان</name>
        <styleUrl>#icon-1739-DB4436-labelson-nodesc</styleUrl>
        <Point>
          <coordinates>
            43.752215,17.600827,0
          </coordinates>
        </Point>
      </Placemark>
      <Placemark>
        <name>تالبان</name>
        <styleUrl>#icon-1739-DB4436-labelson-nodesc</styleUrl>
        <Point>
          <coordinates>
            43.916388,17.671101,0
          </coordinates>
        </Point>
      </Placemark>
      <Placemark>
        <name>تريمة</name>
        <styleUrl>#icon-1739-DB4436-labelson-nodesc</styleUrl>
        <Point>
          <coordinates>
            43.922138,17.90617,0
          </coordinates>
        </Point>
      </Placemark>
      <Placemark>
        <name>تنما</name>
        <styleUrl>#icon-1739-DB4436-labelson-nodesc</styleUrl>
        <Point>
          <coordinates>
            43.715823,17.836089,0
          </coordinates>
        </Point>
      </Placemark>
      <Placemark>
        <name>ثار</name>
        <styleUrl>#icon-1739-DB4436-labelson-nodesc</styleUrl>
        <Point>
          <coordinates>
            44.078178,17.982817,0
          </coordinates>
        </Point>
      </Placemark>
      <Placemark>
        <name>ثجر</name>
        <styleUrl>#icon-1739-DB4436-labelson-nodesc</styleUrl>
        <Point>
          <coordinates>
            44.771283,18.369913,0
          </coordinates>
        </Point>
      </Placemark>
      <Placemark>
        <name>حبونا</name>
        <styleUrl>#icon-1739-DB4436-labelson-nodesc</styleUrl>
        <Point>
          <coordinates>
            44.020543,17.847054,0
          </coordinates>
        </Point>
      </Placemark>
      <Placemark>
        <name>حبونا</name>
        <styleUrl>#icon-1739-DB4436-labelson-nodesc</styleUrl>
        <Point>
          <coordinates>
            43.945291,17.68537,0
          </coordinates>
        </Point>
      </Placemark>
      <Placemark>
        <name>حمى</name>
        <styleUrl>#icon-1739-DB4436-labelson-nodesc</styleUrl>
        <Point>
          <coordinates>
            44.455147,18.245201,0
          </coordinates>
        </Point>
      </Placemark>
      <Placemark>
        <name>حيرة القبيلة</name>
        <styleUrl>#icon-1739-DB4436-labelson-nodesc</styleUrl>
        <Point>
          <coordinates>
            47.007494,17.149401,0
          </coordinates>
        </Point>
      </Placemark>
      <Placemark>
        <name>خباش</name>
        <styleUrl>#icon-1739-DB4436-labelson-nodesc</styleUrl>
        <Point>
          <coordinates>
            44.712338,17.553105,0
          </coordinates>
        </Point>
      </Placemark>
      <Placemark>
        <name>خرخير</name>
        <styleUrl>#icon-1739-DB4436-labelson-nodesc</styleUrl>
        <Point>
          <coordinates>
            51.122367,18.853784,0
          </coordinates>
        </Point>
      </Placemark>
      <Placemark>
        <name>دوح</name>
        <styleUrl>#icon-1739-DB4436-labelson-nodesc</styleUrl>
        <Point>
          <coordinates>
            43.924584,17.672839,0
          </coordinates>
        </Point>
      </Placemark>
      <Placemark>
        <name>رجلاء</name>
        <styleUrl>#icon-1739-DB4436-labelson-nodesc</styleUrl>
        <Point>
          <coordinates>
            44.218941,17.502937,0
          </coordinates>
        </Point>
      </Placemark>
      <Placemark>
        <name>رضية</name>
        <styleUrl>#icon-1739-DB4436-labelson-nodesc</styleUrl>
        <Point>
          <coordinates>
            43.76421,17.726054,0
          </coordinates>
        </Point>
      </Placemark>
      <Placemark>
        <name>زور ال حارث</name>
        <styleUrl>#icon-1739-DB4436-labelson-nodesc</styleUrl>
        <Point>
          <coordinates>
            44.063609,17.465279,0
          </coordinates>
        </Point>
      </Placemark>
      <Placemark>
        <name>زور العقارب</name>
        <styleUrl>#icon-1739-DB4436-labelson-nodesc</styleUrl>
        <Point>
          <coordinates>
            44.110816,17.974877,0
          </coordinates>
        </Point>
      </Placemark>
      <Placemark>
        <name>زور جونان</name>
        <styleUrl>#icon-1739-DB4436-labelson-nodesc</styleUrl>
        <Point>
          <coordinates>
            43.976104,17.858062,0
          </coordinates>
        </Point>
      </Placemark>
      <Placemark>
        <name>سلطانه</name>
        <styleUrl>#icon-1739-DB4436-labelson-nodesc</styleUrl>
        <Point>
          <coordinates>
            45.109134,18.857238,0
          </coordinates>
        </Point>
      </Placemark>
      <Placemark>
        <name>شرورة</name>
        <styleUrl>#icon-1739-DB4436-labelson-nodesc</styleUrl>
        <Point>
          <coordinates>
            47.096543,17.510941,0
          </coordinates>
        </Point>
      </Placemark>
      <Placemark>
        <name>شعب الشهي</name>
        <styleUrl>#icon-1739-DB4436-labelson-nodesc</styleUrl>
        <Point>
          <coordinates>
            44.134912,17.453971,0
          </coordinates>
        </Point>
      </Placemark>
      <Placemark>
        <name>شكمان</name>
        <styleUrl>#icon-1739-DB4436-labelson-nodesc</styleUrl>
        <Point>
          <coordinates>
            43.990288,17.856388,0
          </coordinates>
        </Point>
      </Placemark>
      <Placemark>
        <name>شوحطه</name>
        <styleUrl>#icon-1739-DB4436-labelson-nodesc</styleUrl>
        <Point>
          <coordinates>
            43.770261,17.943614,0
          </coordinates>
        </Point>
      </Placemark>
      <Placemark>
        <name>صلة - آل جازعة</name>
        <styleUrl>#icon-1739-DB4436-labelson-nodesc</styleUrl>
        <Point>
          <coordinates>
            43.735821,17.598059,0
          </coordinates>
        </Point>
      </Placemark>
      <Placemark>
        <name>علبة محظه</name>
        <styleUrl>#icon-1739-DB4436-labelson-nodesc</styleUrl>
        <Point>
          <coordinates>
            43.942223,17.85862,0
          </coordinates>
        </Point>
      </Placemark>
      <Placemark>
        <name>غابة سقام</name>
        <styleUrl>#icon-1739-DB4436-labelson-nodesc</styleUrl>
        <Point>
          <coordinates>
            44.199672,17.48369,0
          </coordinates>
        </Point>
      </Placemark>
      <Placemark>
        <name>فردة الصدر</name>
        <styleUrl>#icon-1739-DB4436-labelson-nodesc</styleUrl>
        <Point>
          <coordinates>
            43.994837,17.552376,0
          </coordinates>
        </Point>
      </Placemark>
      <Placemark>
        <name>قري بني هميم</name>
        <styleUrl>#icon-1739-DB4436-labelson-nodesc</styleUrl>
        <Point>
          <coordinates>
            44.001167,17.819867,0
          </coordinates>
        </Point>
      </Placemark>
      <Placemark>
        <name>قطن</name>
        <styleUrl>#icon-1739-DB4436-labelson-nodesc</styleUrl>
        <Point>
          <coordinates>
            44.122403,18.140616,0
          </coordinates>
        </Point>
      </Placemark>
      <Placemark>
        <name>لاهومة</name>
        <styleUrl>#icon-1739-DB4436-labelson-nodesc</styleUrl>
        <Point>
          <coordinates>
            44.277542,17.840509,0
          </coordinates>
        </Point>
      </Placemark>
      <Placemark>
        <name>لحيفة</name>
        <styleUrl>#icon-1739-DB4436-labelson-nodesc</styleUrl>
        <Point>
          <coordinates>
            43.891754,17.677796,0
          </coordinates>
        </Point>
      </Placemark>
      <Placemark>
        <name>مركز بئر عسكر</name>
        <styleUrl>#icon-1739-DB4436-labelson-nodesc</styleUrl>
        <Point>
          <coordinates>
            44.082491,17.593617,0
          </coordinates>
        </Point>
      </Placemark>
      <Placemark>
        <name>منطقة الخانق</name>
        <styleUrl>#icon-1739-DB4436-labelson-nodesc</styleUrl>
        <Point>
          <coordinates>
            43.7573,17.7335,0
          </coordinates>
        </Point>
      </Placemark>
      <Placemark>
        <name>نجران</name>
        <styleUrl>#icon-1739-DB4436-labelson-nodesc</styleUrl>
        <Point>
          <coordinates>
            44.223833,17.543063,0
          </coordinates>
        </Point>
      </Placemark>
      <Placemark>
        <name>نزغه</name>
        <styleUrl>#icon-1739-DB4436-labelson-nodesc</styleUrl>
        <Point>
          <coordinates>
            43.831029,17.74749,0
          </coordinates>
        </Point>
      </Placemark>
      <Placemark>
        <name>نعوان</name>
        <styleUrl>#icon-1739-DB4436-labelson-nodesc</styleUrl>
        <Point>
          <coordinates>
            44.337494,18.180571,0
          </coordinates>
        </Point>
      </Placemark>
      <Placemark>
        <name>هجرة ال حنش</name>
        <styleUrl>#icon-1739-DB4436-labelson-nodesc</styleUrl>
        <Point>
          <coordinates>
            43.938317,17.850015,0
          </coordinates>
        </Point>
      </Placemark>
      <Placemark>
        <name>هجرة ال قبلان</name>
        <styleUrl>#icon-1739-DB4436-labelson-nodesc</styleUrl>
        <Point>
          <coordinates>
            43.879309,18.11609,0
          </coordinates>
        </Point>
      </Placemark>
      <Placemark>
        <name>هجرة ال مخلص</name>
        <styleUrl>#icon-1739-DB4436-labelson-nodesc</styleUrl>
        <Point>
          <coordinates>
            44.187484,18.07251,0
          </coordinates>
        </Point>
      </Placemark>
      <Placemark>
        <name>هجرة ال مشعل</name>
        <styleUrl>#icon-1739-DB4436-labelson-nodesc</styleUrl>
        <Point>
          <coordinates>
            44.049447,18.181944,0
          </coordinates>
        </Point>
      </Placemark>
      <Placemark>
        <name>هجرة الصايف</name>
        <styleUrl>#icon-1739-DB4436-labelson-nodesc</styleUrl>
        <Point>
          <coordinates>
            43.715007,17.804353,0
          </coordinates>
        </Point>
      </Placemark>
      <Placemark>
        <name>هجرة الفطحه</name>
        <styleUrl>#icon-1739-DB4436-labelson-nodesc</styleUrl>
        <Point>
          <coordinates>
            44.163043,18.063326,0
          </coordinates>
        </Point>
      </Placemark>
      <Placemark>
        <name>هجرة القايمه</name>
        <styleUrl>#icon-1739-DB4436-labelson-nodesc</styleUrl>
        <Point>
          <coordinates>
            44.195187,18.466623,0
          </coordinates>
        </Point>
      </Placemark>
      <Placemark>
        <name>هجرت ال ابو فقايا</name>
        <styleUrl>#icon-1739-DB4436-labelson-nodesc</styleUrl>
        <Point>
          <coordinates>
            44.33758,18.187201,0
          </coordinates>
        </Point>
      </Placemark>
      <Placemark>
        <name>هجرت ال سالم</name>
        <styleUrl>#icon-1739-DB4436-labelson-nodesc</styleUrl>
        <Point>
          <coordinates>
            43.729105,17.89381,0
          </coordinates>
        </Point>
      </Placemark>
      <Placemark>
        <name>هجرت ال عمر</name>
        <styleUrl>#icon-1739-DB4436-labelson-nodesc</styleUrl>
        <Point>
          <coordinates>
            43.884308,18.109417,0
          </coordinates>
        </Point>
      </Placemark>
      <Placemark>
        <name>هجرت ال عيد</name>
        <styleUrl>#icon-1739-DB4436-labelson-nodesc</styleUrl>
        <Point>
          <coordinates>
            43.989172,17.844458,0
          </coordinates>
        </Point>
      </Placemark>
      <Placemark>
        <name>هجرت ال هجامه</name>
        <styleUrl>#icon-1739-DB4436-labelson-nodesc</styleUrl>
        <Point>
          <coordinates>
            44.500186,17.822099,0
          </coordinates>
        </Point>
      </Placemark>
      <Placemark>
        <name>هجرت المنتزه</name>
        <styleUrl>#icon-1739-DB4436-labelson-nodesc</styleUrl>
        <Point>
          <coordinates>
            44.573271,18.145466,0
          </coordinates>
        </Point>
      </Placemark>
      <Placemark>
        <name>هدادة</name>
        <styleUrl>#icon-1739-DB4436-labelson-nodesc</styleUrl>
        <Point>
          <coordinates>
            43.764296,17.603338,0
          </coordinates>
        </Point>
      </Placemark>
      <Placemark>
        <name>وسط</name>
        <styleUrl>#icon-1739-DB4436-labelson-nodesc</styleUrl>
        <Point>
          <coordinates>
            44.208448,18.293781,0
          </coordinates>
        </Point>
      </Placemark>
      <Placemark>
        <name>يدمة</name>
        <styleUrl>#icon-1739-DB4436-labelson-nodesc</styleUrl>
        <Point>
          <coordinates>
            44.204779,18.536832,0
          </coordinates>
        </Point>
      </Placemark>
      <Placemark>
        <name>آل شعفه</name>
        <styleUrl>#icon-1739-DB4436-labelson-nodesc</styleUrl>
        <Point>
          <coordinates>
            43.7680671,17.4681934,0
          </coordinates>
        </Point>
      </Placemark>
    </Folder>
  </Document>
</kml>
